{
  "type": "FeatureCollection",
  "name": "Automatic Rain Recorder (ARR) with Data- Jakarta",
  "crs": {
    "type": "name",
    "properties": {
      "name": "urn:ogc:def:crs:OGC:1.3:CRS84"
    }
  },
  "features": [
    {
      "type": "Feature",
      "properties": {
        "ARR_Name": "Puskesmas Kemang",
        "Device_ID": "ARR_1",
        "Brand": "PT. INTI",
        "Latitude": -6.27926,
        "Longitude": 106.81493,
        "Elevation": "No Data",
        "Catchment_Name": "DAS Krukut",
        "Built_Year": 2015,
        "Provinsi": "DKI Jakarta",
        "Kota": "Jakarta Selatan",
        "Kecamatan": "Jakarta Selatan",
        "Kelurahan": "Pasar Minggu",
        "Manager": "BBWS Ciliwung Cisadane",
        "River_Region": "WS Ciliwung Cisadane",
        "Station_Condition": "Poor",
        "Device_Condition": "Good",
        "Type": "Telemetri",
        "Data_Frequency": "15 minutes",
        "Last_Maintenance": "20-08-2020",
        "Data_Completeness": "98%",
        "Reading": {
          "2020-01-01": 13.0,
          "2020-01-02": 0.0,
          "2020-01-03": 4.5,
          "2020-01-04": 6.0,
          "2020-01-05": 21.5,
          "2020-01-06": 0.5,
          "2020-01-07": 13.0,
          "2020-01-08": 14.0,
          "2020-01-09": 12.0,
          "2020-01-10": 2.0,
          "2020-01-11": 0.0,
          "2020-01-12": 2.0,
          "2020-01-13": 0.0,
          "2020-01-14": 3.0,
          "2020-01-15": 0.0,
          "2020-01-16": 14.0,
          "2020-01-17": 9.5,
          "2020-01-18": 1.0,
          "2020-01-19": 0.0,
          "2020-01-20": 5.5,
          "2020-01-21": 0.0,
          "2020-01-22": 2.0,
          "2020-01-23": 1.9,
          "2020-01-24": 52.0,
          "2020-01-25": 3.0,
          "2020-01-26": 6.0,
          "2020-01-27": 0.0,
          "2020-01-28": 0.0,
          "2020-01-29": 9.0,
          "2020-01-30": 4.5,
          "2020-01-31": 46.0,
          "2020-02-01": 14.0,
          "2020-02-02": 5.0,
          "2020-02-03": 4.5,
          "2020-02-04": 6.5,
          "2020-02-05": 4.0,
          "2020-02-06": 0.0,
          "2020-02-07": 74.0,
          "2020-02-08": 3.0,
          "2020-02-09": 0.0,
          "2020-02-10": 0.0,
          "2020-02-11": 0.0,
          "2020-02-12": 0.0,
          "2020-02-13": 0.0,
          "2020-02-14": 8.5,
          "2020-02-15": 0.0,
          "2020-02-16": 14.5,
          "2020-02-17": 3.0,
          "2020-02-18": 0.0,
          "2020-02-19": 0.0,
          "2020-02-20": 34.0,
          "2020-02-21": 14.0,
          "2020-02-22": 52.0,
          "2020-02-23": 67.0,
          "2020-02-24": 15.5,
          "2020-02-25": 102.0,
          "2020-02-26": 4.0,
          "2020-02-27": 3.0,
          "2020-02-28": 7.0,
          "2020-02-29": 6.0,
          "2020-03-01": 4.5,
          "2020-03-02": 0.0,
          "2020-03-03": 0.0,
          "2020-03-04": 8.0,
          "2020-03-05": 1.5,
          "2020-03-06": 2.0,
          "2020-03-07": 0.0,
          "2020-03-08": 0.0,
          "2020-03-09": 0.0,
          "2020-03-10": 3.0,
          "2020-03-11": 4.5,
          "2020-03-12": 16.0,
          "2020-03-13": 0.0,
          "2020-03-14": 4.0,
          "2020-03-15": 7.0,
          "2020-03-16": 49.5,
          "2020-03-17": 0.0,
          "2020-03-18": 0.0,
          "2020-03-19": 3.5,
          "2020-03-20": 66.0,
          "2020-03-21": 9.0,
          "2020-03-22": 3.0,
          "2020-03-23": 4.0,
          "2020-03-24": 2.5,
          "2020-03-25": 0.0,
          "2020-03-26": 2.5,
          "2020-03-27": 0.0,
          "2020-03-28": 6.0,
          "2020-03-29": 1.5,
          "2020-03-30": 17.5,
          "2020-03-31": 10.5,
          "2020-04-01": 0.0,
          "2020-04-02": 0.0,
          "2020-04-03": 0.0,
          "2020-04-04": 0.0,
          "2020-04-05": 0.0,
          "2020-04-06": 8.0,
          "2020-04-07": 0.0,
          "2020-04-08": 0.0,
          "2020-04-09": 3.0,
          "2020-04-10": 42.5,
          "2020-04-11": 7.0,
          "2020-04-12": 5.0,
          "2020-04-13": 71.0,
          "2020-04-14": 3.0,
          "2020-04-15": 5.5,
          "2020-04-16": 0.0,
          "2020-04-17": 0.0,
          "2020-04-18": 2.0,
          "2020-04-19": 4.0,
          "2020-04-20": 0.0,
          "2020-04-21": 0.0,
          "2020-04-22": 0.0,
          "2020-04-23": 0.0,
          "2020-04-24": 11.5,
          "2020-04-25": 2.0,
          "2020-04-26": 4.0,
          "2020-04-27": 67.5,
          "2020-04-28": 15.0,
          "2020-04-29": 60.0,
          "2020-04-30": 24.5,
          "2020-05-01": 0.0,
          "2020-05-02": 0.0,
          "2020-05-03": 0.0,
          "2020-05-04": 0.0,
          "2020-05-05": 0.0,
          "2020-05-06": 9.5,
          "2020-05-07": 0.0,
          "2020-05-08": 5.0,
          "2020-05-09": 0.0,
          "2020-05-10": 21.0,
          "2020-05-11": 0.0,
          "2020-05-12": 14.0,
          "2020-05-13": 0.0,
          "2020-05-14": 0.0,
          "2020-05-15": 0.0,
          "2020-05-16": 0.0,
          "2020-05-17": 3.0,
          "2020-05-18": 38.0,
          "2020-05-19": 0.0,
          "2020-05-20": 22.5,
          "2020-05-21": 0.0,
          "2020-05-22": 0.0,
          "2020-05-23": 0.0,
          "2020-05-24": 0.0,
          "2020-05-25": 0.0,
          "2020-05-26": 0.0,
          "2020-05-27": 0.0,
          "2020-05-28": 0.0,
          "2020-05-29": 0.0,
          "2020-05-30": 0.0,
          "2020-05-31": 6.5,
          "2020-06-01": 0.0,
          "2020-06-02": 3.5,
          "2020-06-03": 13.5,
          "2020-06-04": 0.0,
          "2020-06-05": 11.0,
          "2020-06-06": 0.0,
          "2020-06-07": 0.0,
          "2020-06-08": 0.0,
          "2020-06-09": 0.0,
          "2020-06-10": 0.0,
          "2020-06-11": 0.0,
          "2020-06-12": 0.0,
          "2020-06-13": 0.0,
          "2020-06-14": 0.0,
          "2020-06-15": 0.0,
          "2020-06-16": 0.0,
          "2020-06-17": 0.0,
          "2020-06-18": 0.0,
          "2020-06-19": 0.0,
          "2020-06-20": 0.0,
          "2020-06-21": 0.0,
          "2020-06-22": 7.0,
          "2020-06-23": 0.0,
          "2020-06-24": 23.0,
          "2020-06-25": 0.0,
          "2020-06-26": 0.0,
          "2020-06-27": 0.0,
          "2020-06-28": 0.0,
          "2020-06-29": 0.0,
          "2020-06-30": 0.0,
          "2020-07-01": 0.0,
          "2020-07-02": 12.5,
          "2020-07-03": 0.0,
          "2020-07-04": 0.0,
          "2020-07-05": 0.0,
          "2020-07-06": 2.5,
          "2020-07-07": 0.0,
          "2020-07-08": 0.0,
          "2020-07-09": 0.0,
          "2020-07-10": 0.0,
          "2020-07-11": 0.0,
          "2020-07-12": 0.0,
          "2020-07-13": 0.0,
          "2020-07-14": 7.0,
          "2020-07-15": 0.0,
          "2020-07-16": 0.0,
          "2020-07-17": 0.0,
          "2020-07-18": 0.0,
          "2020-07-19": 0.0,
          "2020-07-20": 6.0,
          "2020-07-21": 6.5,
          "2020-07-22": 0.0,
          "2020-07-23": 0.0,
          "2020-07-24": 0.0,
          "2020-07-25": 0.0,
          "2020-07-26": 0.0,
          "2020-07-27": 0.0,
          "2020-07-28": 0.0,
          "2020-07-29": 0.0,
          "2020-07-30": 0.0,
          "2020-07-31": 0.0,
          "2020-08-01": 0.0,
          "2020-08-02": 0.0,
          "2020-08-03": 0.0,
          "2020-08-04": 0.0,
          "2020-08-05": 0.0,
          "2020-08-06": 0.0,
          "2020-08-07": 0.0,
          "2020-08-08": 27.0,
          "2020-08-09": 5.0,
          "2020-08-10": 0.0,
          "2020-08-11": 34.0,
          "2020-08-12": 0.0,
          "2020-08-13": 40.5,
          "2020-08-14": 0.0,
          "2020-08-15": 0.0,
          "2020-08-16": 16.5,
          "2020-08-17": 0.0,
          "2020-08-18": 4.5,
          "2020-08-19": 6.0,
          "2020-08-20": 0.0,
          "2020-08-21": 0.0,
          "2020-08-22": 0.0,
          "2020-08-23": 0.0,
          "2020-08-24": 0.0,
          "2020-08-25": 0.0,
          "2020-08-26": 0.0,
          "2020-08-27": 0.0,
          "2020-08-28": 0.0,
          "2020-08-29": 0.0,
          "2020-08-30": 0.0,
          "2020-08-31": 0.0,
          "2020-09-01": 0.0,
          "2020-09-02": 1.5,
          "2020-09-03": 0.0,
          "2020-09-04": 0.0,
          "2020-09-05": 0.0,
          "2020-09-06": 0.0,
          "2020-09-07": 0.0,
          "2020-09-08": 0.0,
          "2020-09-09": 0.0,
          "2020-09-10": 0.0,
          "2020-09-11": 0.0,
          "2020-09-12": 0.0,
          "2020-09-13": 0.0,
          "2020-09-14": 33.0,
          "2020-09-15": 83.5,
          "2020-09-16": 4.5,
          "2020-09-17": 0.0,
          "2020-09-18": 0.0,
          "2020-09-19": 0.0,
          "2020-09-20": 10.5,
          "2020-09-21": 12.0,
          "2020-09-22": 20.0,
          "2020-09-23": 0.0,
          "2020-09-24": 0.0,
          "2020-09-25": 0.0,
          "2020-09-26": 0.0,
          "2020-09-27": 0.0,
          "2020-09-28": 0.0,
          "2020-09-29": 0.0,
          "2020-09-30": 0.0,
          "2020-10-01": 0.0,
          "2020-10-02": 98.0,
          "2020-10-03": 0.0,
          "2020-10-04": 66.5,
          "2020-10-05": 0.0,
          "2020-10-06": 0.0,
          "2020-10-07": 0.0,
          "2020-10-08": 21.0,
          "2020-10-09": 0.0,
          "2020-10-10": 63.5,
          "2020-10-11": 0.0,
          "2020-10-12": 0.0,
          "2020-10-13": 0.0,
          "2020-10-14": 0.0,
          "2020-10-15": 0.0,
          "2020-10-16": 44.0,
          "2020-10-17": 0.0,
          "2020-10-18": 0.0,
          "2020-10-19": 33.0,
          "2020-10-20": 1.0,
          "2020-10-21": 0.0,
          "2020-10-22": 0.0,
          "2020-10-23": 0.0,
          "2020-10-24": 0.0,
          "2020-10-25": 18.0,
          "2020-10-26": 13.0,
          "2020-10-27": 21.5,
          "2020-10-28": 0.0,
          "2020-10-29": 0.0,
          "2020-10-30": 0.0,
          "2020-10-31": 3.5,
          "2020-11-01": 22.0,
          "2020-11-02": 0.0,
          "2020-11-03": 0.0,
          "2020-11-04": 22.5,
          "2020-11-05": 0.0,
          "2020-11-06": 8.0,
          "2020-11-07": 1.0,
          "2020-11-08": 48.0,
          "2020-11-09": 0.0,
          "2020-11-10": 4.0,
          "2020-11-11": 0.0,
          "2020-11-12": 0.0,
          "2020-11-13": 0.0,
          "2020-11-14": 0.0,
          "2020-11-15": 0.0,
          "2020-11-16": 0.0,
          "2020-11-17": 0.0,
          "2020-11-18": 1.0,
          "2020-11-19": 0.0,
          "2020-11-20": 3.0,
          "2020-11-21": 6.0,
          "2020-11-22": 9.0,
          "2020-11-23": 2.5,
          "2020-11-24": 15.0,
          "2020-11-25": 7.5,
          "2020-11-26": 0.0,
          "2020-11-27": 4.0,
          "2020-11-28": 0.0,
          "2020-11-29": 5.0,
          "2020-11-30": 0.0,
          "2020-12-01": 0.0,
          "2020-12-02": 14.5,
          "2020-12-03": 0.0,
          "2020-12-04": 11.5,
          "2020-12-05": 14.0,
          "2020-12-06": 40.0,
          "2020-12-07": 13.0,
          "2020-12-08": 0.0,
          "2020-12-09": 0.0,
          "2020-12-10": 0.0,
          "2020-12-11": 0.0,
          "2020-12-12": 0.0,
          "2020-12-13": 0.0,
          "2020-12-14": 9.5,
          "2020-12-15": 0.0,
          "2020-12-16": 7.0,
          "2020-12-17": 0.0,
          "2020-12-18": 0.0,
          "2020-12-19": 0.0,
          "2020-12-20": 3.0,
          "2020-12-21": 0.0,
          "2020-12-22": 0.0,
          "2020-12-23": 0.0,
          "2020-12-24": 0.0,
          "2020-12-25": 0.0,
          "2020-12-26": 0.0,
          "2020-12-27": 0.0,
          "2020-12-28": 0.0,
          "2020-12-29": 0.0,
          "2020-12-30": 0.0,
          "2020-12-31": 6.5
        },
        "Reading_(+6hr)": "150 mm",
        "Reading_Manual": {
          "2020-01-01": 0.2,
          "2020-01-02": 0.9,
          "2020-01-03": 6.3,
          "2020-01-04": 4.7,
          "2020-01-05": 9.8,
          "2020-01-06": 10.6,
          "2020-01-07": 2.5,
          "2020-01-08": 2.8,
          "2020-01-09": 7.6,
          "2020-01-10": 10.2,
          "2020-01-11": 17.7,
          "2020-01-12": 1.7,
          "2020-01-13": 12.3,
          "2020-01-14": 12.3,
          "2020-01-15": 3.9,
          "2020-01-16": 4.2,
          "2020-01-17": 13.2,
          "2020-01-18": 5.0,
          "2020-01-19": 11.1,
          "2020-01-20": 16.1,
          "2020-01-21": 6.1,
          "2020-01-22": 1.5,
          "2020-01-23": 16.1,
          "2020-01-24": 14.0,
          "2020-01-25": 4.4,
          "2020-01-26": 15.4,
          "2020-01-27": 8.5,
          "2020-01-28": 9.7,
          "2020-01-29": 8.7,
          "2020-01-30": 17.5,
          "2020-01-31": 11.8,
          "2020-02-01": 13.1,
          "2020-02-02": 8.1,
          "2020-02-03": 6.2,
          "2020-02-04": 2.8,
          "2020-02-05": 19.7,
          "2020-02-06": 11.7,
          "2020-02-07": 16.3,
          "2020-02-08": 10.0,
          "2020-02-09": 19.6,
          "2020-02-10": 18.5,
          "2020-02-11": 10.6,
          "2020-02-12": 8.6,
          "2020-02-13": 1.6,
          "2020-02-14": 8.8,
          "2020-02-15": 7.1,
          "2020-02-16": 11.3,
          "2020-02-17": 6.2,
          "2020-02-18": 11.2,
          "2020-02-19": 2.0,
          "2020-02-20": 16.2,
          "2020-02-21": 7.5,
          "2020-02-22": 12.3,
          "2020-02-23": 7.0,
          "2020-02-24": 12.0,
          "2020-02-25": 10.8,
          "2020-02-26": 3.8,
          "2020-02-27": 7.2,
          "2020-02-28": 9.7,
          "2020-02-29": 16.4,
          "2020-03-01": 19.4,
          "2020-03-02": 0.9,
          "2020-03-03": 13.2,
          "2020-03-04": 0.7,
          "2020-03-05": 11.1,
          "2020-03-06": 17.8,
          "2020-03-07": 9.4,
          "2020-03-08": 19.4,
          "2020-03-09": 1.4,
          "2020-03-10": 11.8,
          "2020-03-11": 3.2,
          "2020-03-12": 5.2,
          "2020-03-13": 18.4,
          "2020-03-14": 15.8,
          "2020-03-15": 17.7,
          "2020-03-16": 3.2,
          "2020-03-17": 1.0,
          "2020-03-18": 12.5,
          "2020-03-19": 9.0,
          "2020-03-20": 18.1,
          "2020-03-21": 18.1,
          "2020-03-22": 4.6,
          "2020-03-23": 19.9,
          "2020-03-24": 15.2,
          "2020-03-25": 11.3,
          "2020-03-26": 17.2,
          "2020-03-27": 4.6,
          "2020-03-28": 10.5,
          "2020-03-29": 11.4,
          "2020-03-30": 6.2,
          "2020-03-31": 0.8,
          "2020-04-01": 16.9,
          "2020-04-02": 9.5,
          "2020-04-03": 0.0,
          "2020-04-04": 8.3,
          "2020-04-05": 3.2,
          "2020-04-06": 8.6,
          "2020-04-07": 19.2,
          "2020-04-08": 6.1,
          "2020-04-09": 3.4,
          "2020-04-10": 1.2,
          "2020-04-11": 13.7,
          "2020-04-12": 1.7,
          "2020-04-13": 19.8,
          "2020-04-14": 13.5,
          "2020-04-15": 3.8,
          "2020-04-16": 0.7,
          "2020-04-17": 10.8,
          "2020-04-18": 13.2,
          "2020-04-19": 1.1,
          "2020-04-20": 15.4,
          "2020-04-21": 13.4,
          "2020-04-22": 2.8,
          "2020-04-23": 15.0,
          "2020-04-24": 5.1,
          "2020-04-25": 12.6,
          "2020-04-26": 5.3,
          "2020-04-27": 2.3,
          "2020-04-28": 16.7,
          "2020-04-29": 0.0,
          "2020-04-30": 2.2,
          "2020-05-01": 13.5,
          "2020-05-02": 3.2,
          "2020-05-03": 0.2,
          "2020-05-04": 19.9,
          "2020-05-05": 4.6,
          "2020-05-06": 11.6,
          "2020-05-07": 5.7,
          "2020-05-08": 17.2,
          "2020-05-09": 9.3,
          "2020-05-10": 14.7,
          "2020-05-11": 16.7,
          "2020-05-12": 11.9,
          "2020-05-13": 7.8,
          "2020-05-14": 9.6,
          "2020-05-15": 3.0,
          "2020-05-16": 4.0,
          "2020-05-17": 6.1,
          "2020-05-18": 0.5,
          "2020-05-19": 13.5,
          "2020-05-20": 2.6,
          "2020-05-21": 4.7,
          "2020-05-22": 14.3,
          "2020-05-23": 11.8,
          "2020-05-24": 11.6,
          "2020-05-25": 9.8,
          "2020-05-26": 3.5,
          "2020-05-27": 18.9,
          "2020-05-28": 3.6,
          "2020-05-29": 2.0,
          "2020-05-30": 17.1,
          "2020-05-31": 11.1,
          "2020-06-01": 13.2,
          "2020-06-02": 1.2,
          "2020-06-03": 11.9,
          "2020-06-04": 16.7,
          "2020-06-05": 16.7,
          "2020-06-06": 19.9,
          "2020-06-07": 12.8,
          "2020-06-08": 5.8,
          "2020-06-09": 10.8,
          "2020-06-10": 18.7,
          "2020-06-11": 15.7,
          "2020-06-12": 1.8,
          "2020-06-13": 11.3,
          "2020-06-14": 10.7,
          "2020-06-15": 4.1,
          "2020-06-16": 4.8,
          "2020-06-17": 15.6,
          "2020-06-18": 8.5,
          "2020-06-19": 3.4,
          "2020-06-20": 15.2,
          "2020-06-21": 14.5,
          "2020-06-22": 14.9,
          "2020-06-23": 11.6,
          "2020-06-24": 1.5,
          "2020-06-25": 8.1,
          "2020-06-26": 18.3,
          "2020-06-27": 13.4,
          "2020-06-28": 9.3,
          "2020-06-29": 15.4,
          "2020-06-30": 12.1,
          "2020-07-01": 0.4,
          "2020-07-02": 9.9,
          "2020-07-03": 17.2,
          "2020-07-04": 0.1,
          "2020-07-05": 5.6,
          "2020-07-06": 9.2,
          "2020-07-07": 1.2,
          "2020-07-08": 11.9,
          "2020-07-09": 2.0,
          "2020-07-10": 6.9,
          "2020-07-11": 8.0,
          "2020-07-12": 15.1,
          "2020-07-13": 14.6,
          "2020-07-14": 18.4,
          "2020-07-15": 15.3,
          "2020-07-16": 16.3,
          "2020-07-17": 15.9,
          "2020-07-18": 7.2,
          "2020-07-19": 18.8,
          "2020-07-20": 2.7,
          "2020-07-21": 10.1,
          "2020-07-22": 18.4,
          "2020-07-23": 14.4,
          "2020-07-24": 1.4,
          "2020-07-25": 14.0,
          "2020-07-26": 15.2,
          "2020-07-27": 9.3,
          "2020-07-28": 18.9,
          "2020-07-29": 12.7,
          "2020-07-30": 4.7,
          "2020-07-31": 7.2,
          "2020-08-01": 7.5,
          "2020-08-02": 13.6,
          "2020-08-03": 10.2,
          "2020-08-04": 11.1,
          "2020-08-05": 14.0,
          "2020-08-06": 6.0,
          "2020-08-07": 1.2,
          "2020-08-08": 13.3,
          "2020-08-09": 5.1,
          "2020-08-10": 20.0,
          "2020-08-11": 4.2,
          "2020-08-12": 14.1,
          "2020-08-13": 6.0,
          "2020-08-14": 10.3,
          "2020-08-15": 1.6,
          "2020-08-16": 7.9,
          "2020-08-17": 19.7,
          "2020-08-18": 19.7,
          "2020-08-19": 6.5,
          "2020-08-20": 12.5,
          "2020-08-21": 15.0,
          "2020-08-22": 19.2,
          "2020-08-23": 16.7,
          "2020-08-24": 17.0,
          "2020-08-25": 10.8,
          "2020-08-26": 10.2,
          "2020-08-27": 16.4,
          "2020-08-28": 7.0,
          "2020-08-29": 7.3,
          "2020-08-30": 5.7,
          "2020-08-31": 3.1,
          "2020-09-01": 17.7,
          "2020-09-02": 14.3,
          "2020-09-03": 6.4,
          "2020-09-04": 17.2,
          "2020-09-05": 11.3,
          "2020-09-06": 14.9,
          "2020-09-07": 3.4,
          "2020-09-08": 2.1,
          "2020-09-09": 4.2,
          "2020-09-10": 9.0,
          "2020-09-11": 0.8,
          "2020-09-12": 7.2,
          "2020-09-13": 6.1,
          "2020-09-14": 9.5,
          "2020-09-15": 6.3,
          "2020-09-16": 11.8,
          "2020-09-17": 12.9,
          "2020-09-18": 0.3,
          "2020-09-19": 12.5,
          "2020-09-20": 6.1,
          "2020-09-21": 16.9,
          "2020-09-22": 18.8,
          "2020-09-23": 8.6,
          "2020-09-24": 16.9,
          "2020-09-25": 11.0,
          "2020-09-26": 11.9,
          "2020-09-27": 10.1,
          "2020-09-28": 0.1,
          "2020-09-29": 4.3,
          "2020-09-30": 11.8,
          "2020-10-01": 9.1,
          "2020-10-02": 17.2,
          "2020-10-03": 2.5,
          "2020-10-04": 14.6,
          "2020-10-05": 7.4,
          "2020-10-06": 11.7,
          "2020-10-07": 1.4,
          "2020-10-08": 13.6,
          "2020-10-09": 7.6,
          "2020-10-10": 4.9,
          "2020-10-11": 7.3,
          "2020-10-12": 12.7,
          "2020-10-13": 0.5,
          "2020-10-14": 14.9,
          "2020-10-15": 4.1,
          "2020-10-16": 9.2,
          "2020-10-17": 18.1,
          "2020-10-18": 5.6,
          "2020-10-19": 1.5,
          "2020-10-20": 12.4,
          "2020-10-21": 7.6,
          "2020-10-22": 19.2,
          "2020-10-23": 3.8,
          "2020-10-24": 6.9,
          "2020-10-25": 0.1,
          "2020-10-26": 6.2,
          "2020-10-27": 13.7,
          "2020-10-28": 10.8,
          "2020-10-29": 1.0,
          "2020-10-30": 18.6,
          "2020-10-31": 2.2,
          "2020-11-01": 18.8,
          "2020-11-02": 18.8,
          "2020-11-03": 19.9,
          "2020-11-04": 19.7,
          "2020-11-05": 1.3,
          "2020-11-06": 7.7,
          "2020-11-07": 16.0,
          "2020-11-08": 16.8,
          "2020-11-09": 18.3,
          "2020-11-10": 7.5,
          "2020-11-11": 0.9,
          "2020-11-12": 18.5,
          "2020-11-13": 7.9,
          "2020-11-14": 11.0,
          "2020-11-15": 13.2,
          "2020-11-16": 8.8,
          "2020-11-17": 2.6,
          "2020-11-18": 2.9,
          "2020-11-19": 2.9,
          "2020-11-20": 11.5,
          "2020-11-21": 3.4,
          "2020-11-22": 16.7,
          "2020-11-23": 17.0,
          "2020-11-24": 3.2,
          "2020-11-25": 6.5,
          "2020-11-26": 19.5,
          "2020-11-27": 18.1,
          "2020-11-28": 6.5,
          "2020-11-29": 3.2,
          "2020-11-30": 13.5,
          "2020-12-01": 15.7,
          "2020-12-02": 8.8,
          "2020-12-03": 2.3,
          "2020-12-04": 15.8,
          "2020-12-05": 19.6,
          "2020-12-06": 9.4,
          "2020-12-07": 0.3,
          "2020-12-08": 8.4,
          "2020-12-09": 1.4,
          "2020-12-10": 18.7,
          "2020-12-11": 11.8,
          "2020-12-12": 8.6,
          "2020-12-13": 4.9,
          "2020-12-14": 9.0,
          "2020-12-15": 18.2,
          "2020-12-16": 3.6,
          "2020-12-17": 19.4,
          "2020-12-18": 6.0,
          "2020-12-19": 5.8,
          "2020-12-20": 1.2,
          "2020-12-21": 1.8,
          "2020-12-22": 10.4,
          "2020-12-23": 7.8,
          "2020-12-24": 9.5,
          "2020-12-25": 3.7,
          "2020-12-26": 5.6,
          "2020-12-27": 14.1,
          "2020-12-28": 3.5,
          "2020-12-29": 4.2,
          "2020-12-30": 13.8,
          "2020-12-31": 11.7
        }
      },
      "geometry": {
        "type": "Point",
        "coordinates": [
          106.81493,
          -6.27926000035
        ]
      }
    },
    {
      "type": "Feature",
      "properties": {
        "ARR_Name": "Cawang",
        "Device_ID": "ARR_2",
        "Brand": "PT. INTI",
        "Latitude": -6.241278,
        "Longitude": 106.8804,
        "Elevation": "No Data",
        "Catchment_Name": "DAS Sunter",
        "Built_Year": 2015,
        "Provinsi": "DKI Jakarta",
        "Kota": "Jakarta Timur",
        "Kecamatan": "Jakarta Timur",
        "Kelurahan": "Makasar",
        "Manager": "BBWS Ciliwung Cisadane",
        "River_Region": "WS Ciliwung Cisadane",
        "Station_Condition": "Poor",
        "Device_Condition": "Good",
        "Type": "Telemetri",
        "Data_Frequency": "15 minutes",
        "Last_Maintenance": "20-08-2020",
        "Data_Completeness": "98%",
        "Reading": {
          "2020-01-01": 51.0,
          "2020-01-02": 0.0,
          "2020-01-03": 0.0,
          "2020-01-04": 4.0,
          "2020-01-05": 34.5,
          "2020-01-06": 10.0,
          "2020-01-07": 5.5,
          "2020-01-08": 14.0,
          "2020-01-09": 15.5,
          "2020-01-10": 11.0,
          "2020-01-11": 0.0,
          "2020-01-12": 0.0,
          "2020-01-13": 0.0,
          "2020-01-14": 9.5,
          "2020-01-15": 4.5,
          "2020-01-16": 10.5,
          "2020-01-17": 54.0,
          "2020-01-18": 0.0,
          "2020-01-19": 0.0,
          "2020-01-20": 56.5,
          "2020-01-21": 2.5,
          "2020-01-22": 6.5,
          "2020-01-23": 24.0,
          "2020-01-24": 97.0,
          "2020-01-25": 3.5,
          "2020-01-26": 2.5,
          "2020-01-27": 0.0,
          "2020-01-28": 0.0,
          "2020-01-29": 4.5,
          "2020-01-30": 41.0,
          "2020-01-31": 11.0,
          "2020-02-01": 3.5,
          "2020-02-02": 35.5,
          "2020-02-03": 35.5,
          "2020-02-04": 25.0,
          "2020-02-05": 0.0,
          "2020-02-06": 1.0,
          "2020-02-07": 102.0,
          "2020-02-08": 8.0,
          "2020-02-09": 7.5,
          "2020-02-10": 0.0,
          "2020-02-11": 0.0,
          "2020-02-12": 0.0,
          "2020-02-13": 0.0,
          "2020-02-14": 18.5,
          "2020-02-15": 0.0,
          "2020-02-16": 27.0,
          "2020-02-17": 1.0,
          "2020-02-18": 7.0,
          "2020-02-19": 34.0,
          "2020-02-20": 31.5,
          "2020-02-21": 52.0,
          "2020-02-22": 108.0,
          "2020-02-23": 8.5,
          "2020-02-24": 108.0,
          "2020-02-25": 4.5,
          "2020-02-26": 12.5,
          "2020-02-27": 8.5,
          "2020-02-28": 8.0,
          "2020-02-29": 12.5,
          "2020-03-01": 12.0,
          "2020-03-02": 0.0,
          "2020-03-03": 1.0,
          "2020-03-04": 13.0,
          "2020-03-05": 0.0,
          "2020-03-06": 0.0,
          "2020-03-07": 0.0,
          "2020-03-08": 0.0,
          "2020-03-09": 0.0,
          "2020-03-10": 0.0,
          "2020-03-11": 17.0,
          "2020-03-12": 17.5,
          "2020-03-13": 0.0,
          "2020-03-14": 0.3,
          "2020-03-15": 20.0,
          "2020-03-16": 16.0,
          "2020-03-17": 0.0,
          "2020-03-18": 0.5,
          "2020-03-19": 5.0,
          "2020-03-20": 49.0,
          "2020-03-21": 0.0,
          "2020-03-22": 2.0,
          "2020-03-23": 0.0,
          "2020-03-24": 12.0,
          "2020-03-25": 0.0,
          "2020-03-26": 0.0,
          "2020-03-27": 0.0,
          "2020-03-28": 0.0,
          "2020-03-29": 0.0,
          "2020-03-30": 29.0,
          "2020-03-31": 43.0,
          "2020-04-01": 0.0,
          "2020-04-02": 0.0,
          "2020-04-03": 0.0,
          "2020-04-04": 0.0,
          "2020-04-05": 0.0,
          "2020-04-06": 0.0,
          "2020-04-07": 0.0,
          "2020-04-08": 9.0,
          "2020-04-09": 0.0,
          "2020-04-10": 7.5,
          "2020-04-11": 0.0,
          "2020-04-12": 8.0,
          "2020-04-13": 10.5,
          "2020-04-14": 2.0,
          "2020-04-15": 34.0,
          "2020-04-16": 0.0,
          "2020-04-17": 0.0,
          "2020-04-18": 1.5,
          "2020-04-19": 0.0,
          "2020-04-20": 0.0,
          "2020-04-21": 0.0,
          "2020-04-22": 0.0,
          "2020-04-23": 0.0,
          "2020-04-24": 0.0,
          "2020-04-25": 0.0,
          "2020-04-26": 11.5,
          "2020-04-27": 1.5,
          "2020-04-28": 6.0,
          "2020-04-29": 19.0,
          "2020-04-30": 4.5,
          "2020-05-01": 0.0,
          "2020-05-02": 0.0,
          "2020-05-03": 1.0,
          "2020-05-04": 0.0,
          "2020-05-05": 1.5,
          "2020-05-06": 0.0,
          "2020-05-07": 0.0,
          "2020-05-08": 3.5,
          "2020-05-09": 0.0,
          "2020-05-10": 1.0,
          "2020-05-11": 0.0,
          "2020-05-12": 0.0,
          "2020-05-13": 17.0,
          "2020-05-14": 0.0,
          "2020-05-15": 0.0,
          "2020-05-16": 0.0,
          "2020-05-17": 0.0,
          "2020-05-18": 19.5,
          "2020-05-19": 0.0,
          "2020-05-20": 0.0,
          "2020-05-21": 0.0,
          "2020-05-22": 0.0,
          "2020-05-23": 0.0,
          "2020-05-24": 0.0,
          "2020-05-25": 0.0,
          "2020-05-26": 0.0,
          "2020-05-27": 25.0,
          "2020-05-28": 0.0,
          "2020-05-29": 0.0,
          "2020-05-30": 0.0,
          "2020-05-31": 0.0,
          "2020-06-01": 0.0,
          "2020-06-02": 1.5,
          "2020-06-03": 12.5,
          "2020-06-04": 0.0,
          "2020-06-05": 0.0,
          "2020-06-06": 0.0,
          "2020-06-07": 0.0,
          "2020-06-08": 0.0,
          "2020-06-09": 36.0,
          "2020-06-10": 0.0,
          "2020-06-11": 31.0,
          "2020-06-12": 0.0,
          "2020-06-13": 0.0,
          "2020-06-14": 0.0,
          "2020-06-15": 0.0,
          "2020-06-16": 0.0,
          "2020-06-17": 0.0,
          "2020-06-18": 0.0,
          "2020-06-19": 0.0,
          "2020-06-20": 0.0,
          "2020-06-21": 0.0,
          "2020-06-22": 4.5,
          "2020-06-23": 0.0,
          "2020-06-24": 3.0,
          "2020-06-25": 0.0,
          "2020-06-26": 7.0,
          "2020-06-27": 0.0,
          "2020-06-28": 0.0,
          "2020-06-29": 0.0,
          "2020-06-30": 0.0,
          "2020-07-01": 0.0,
          "2020-07-02": 0.0,
          "2020-07-03": 0.0,
          "2020-07-04": 0.0,
          "2020-07-05": 0.0,
          "2020-07-06": 2.0,
          "2020-07-07": 0.0,
          "2020-07-08": 0.0,
          "2020-07-09": 0.0,
          "2020-07-10": 1.0,
          "2020-07-11": 0.0,
          "2020-07-12": 0.0,
          "2020-07-13": 0.0,
          "2020-07-14": 5.5,
          "2020-07-15": 0.0,
          "2020-07-16": 0.0,
          "2020-07-17": 0.0,
          "2020-07-18": 0.0,
          "2020-07-19": 0.0,
          "2020-07-20": 0.0,
          "2020-07-21": 69.0,
          "2020-07-22": 0.0,
          "2020-07-23": 0.0,
          "2020-07-24": 0.0,
          "2020-07-25": 0.0,
          "2020-07-26": 0.0,
          "2020-07-27": 0.0,
          "2020-07-28": 0.0,
          "2020-07-29": 0.0,
          "2020-07-30": 0.0,
          "2020-07-31": 0.0,
          "2020-08-01": 0.0,
          "2020-08-02": 0.0,
          "2020-08-03": 0.0,
          "2020-08-04": 0.0,
          "2020-08-05": 1.0,
          "2020-08-06": 0.0,
          "2020-08-07": 0.0,
          "2020-08-08": 0.0,
          "2020-08-09": 1.0,
          "2020-08-10": 0.0,
          "2020-08-11": 1.0,
          "2020-08-12": 0.0,
          "2020-08-13": 49.0,
          "2020-08-14": 0.0,
          "2020-08-15": 0.0,
          "2020-08-16": 0.0,
          "2020-08-17": 5.0,
          "2020-08-18": 0.0,
          "2020-08-19": 0.0,
          "2020-08-20": 0.0,
          "2020-08-21": 0.0,
          "2020-08-22": 0.0,
          "2020-08-23": 0.0,
          "2020-08-24": 0.0,
          "2020-08-25": 0.0,
          "2020-08-26": 0.0,
          "2020-08-27": 0.0,
          "2020-08-28": 0.0,
          "2020-08-29": 0.0,
          "2020-08-30": 0.0,
          "2020-08-31": 0.0,
          "2020-09-01": 0.0,
          "2020-09-02": 0.0,
          "2020-09-03": 0.0,
          "2020-09-04": 0.0,
          "2020-09-05": 0.0,
          "2020-09-06": 0.0,
          "2020-09-07": 0.0,
          "2020-09-08": 0.0,
          "2020-09-09": 0.0,
          "2020-09-10": 0.0,
          "2020-09-11": 0.0,
          "2020-09-12": 0.0,
          "2020-09-13": 0.0,
          "2020-09-14": 75.0,
          "2020-09-15": 5.0,
          "2020-09-16": 1.5,
          "2020-09-17": 0.0,
          "2020-09-18": 0.0,
          "2020-09-19": 0.0,
          "2020-09-20": 18.0,
          "2020-09-21": 9.0,
          "2020-09-22": 0.0,
          "2020-09-23": 0.0,
          "2020-09-24": 0.0,
          "2020-09-25": 0.0,
          "2020-09-26": 0.0,
          "2020-09-27": 0.0,
          "2020-09-28": 0.0,
          "2020-09-29": 0.0,
          "2020-09-30": 0.0,
          "2020-10-01": 0.0,
          "2020-10-02": 0.0,
          "2020-10-03": 15.0,
          "2020-10-04": 51.0,
          "2020-10-05": 0.0,
          "2020-10-06": 0.0,
          "2020-10-07": 0.0,
          "2020-10-08": 8.0,
          "2020-10-09": 0.0,
          "2020-10-10": 29.0,
          "2020-10-11": 0.0,
          "2020-10-12": 0.0,
          "2020-10-13": 0.0,
          "2020-10-14": 0.0,
          "2020-10-15": 0.0,
          "2020-10-16": 28.0,
          "2020-10-17": 0.0,
          "2020-10-18": 0.0,
          "2020-10-19": 8.5,
          "2020-10-20": 18.0,
          "2020-10-21": 6.5,
          "2020-10-22": 0.0,
          "2020-10-23": 1.0,
          "2020-10-24": 0.5,
          "2020-10-25": 0.0,
          "2020-10-26": 13.0,
          "2020-10-27": 6.0,
          "2020-10-28": 0.0,
          "2020-10-29": 0.0,
          "2020-10-30": 0.0,
          "2020-10-31": 3.5,
          "2020-11-01": 54.0,
          "2020-11-02": 0.0,
          "2020-11-03": 0.0,
          "2020-11-04": 13.0,
          "2020-11-05": 3.5,
          "2020-11-06": 9.0,
          "2020-11-07": 0.0,
          "2020-11-08": 0.0,
          "2020-11-09": 19.5,
          "2020-11-10": 0.0,
          "2020-11-11": 0.0,
          "2020-11-12": 1.0,
          "2020-11-13": 0.0,
          "2020-11-14": 0.0,
          "2020-11-15": 0.0,
          "2020-11-16": 0.0,
          "2020-11-17": 0.0,
          "2020-11-18": 0.0,
          "2020-11-19": 0.0,
          "2020-11-20": 0.0,
          "2020-11-21": 0.0,
          "2020-11-22": 68.0,
          "2020-11-23": 0.5,
          "2020-11-24": 12.0,
          "2020-11-25": 38.5,
          "2020-11-26": 0.0,
          "2020-11-27": 18.0,
          "2020-11-28": 0.01,
          "2020-11-29": 4.0,
          "2020-11-30": 0.01,
          "2020-12-01": 0.0,
          "2020-12-02": 5.5,
          "2020-12-03": 1.0,
          "2020-12-04": 11.0,
          "2020-12-05": 16.0,
          "2020-12-06": 49.0,
          "2020-12-07": 0.0,
          "2020-12-08": 0.0,
          "2020-12-09": 2.0,
          "2020-12-10": 0.0,
          "2020-12-11": 0.0,
          "2020-12-12": 0.01,
          "2020-12-13": 0.0,
          "2020-12-14": 0.0,
          "2020-12-15": 0.01,
          "2020-12-16": 7.0,
          "2020-12-17": 0.01,
          "2020-12-18": 0.0,
          "2020-12-19": 0.0,
          "2020-12-20": 5.0,
          "2020-12-21": 0.01,
          "2020-12-22": 0.0,
          "2020-12-23": 0.0,
          "2020-12-24": 0.0,
          "2020-12-25": 0.01,
          "2020-12-26": 0.0,
          "2020-12-27": 0.0,
          "2020-12-28": 0.0,
          "2020-12-29": 0.0,
          "2020-12-30": 0.0,
          "2020-12-31": 23.0
        },
        "Reading_(+6hr)": "150 mm",
        "Reading_Manual": {
          "2020-01-01": 1.6,
          "2020-01-02": 13.6,
          "2020-01-03": 18.3,
          "2020-01-04": 5.1,
          "2020-01-05": 16.7,
          "2020-01-06": 18.9,
          "2020-01-07": 11.7,
          "2020-01-08": 14.4,
          "2020-01-09": 3.0,
          "2020-01-10": 13.2,
          "2020-01-11": 10.3,
          "2020-01-12": 16.6,
          "2020-01-13": 0.4,
          "2020-01-14": 11.8,
          "2020-01-15": 6.0,
          "2020-01-16": 17.8,
          "2020-01-17": 19.0,
          "2020-01-18": 13.1,
          "2020-01-19": 19.0,
          "2020-01-20": 19.3,
          "2020-01-21": 12.4,
          "2020-01-22": 4.2,
          "2020-01-23": 19.1,
          "2020-01-24": 5.4,
          "2020-01-25": 7.6,
          "2020-01-26": 3.7,
          "2020-01-27": 14.0,
          "2020-01-28": 5.9,
          "2020-01-29": 13.1,
          "2020-01-30": 4.5,
          "2020-01-31": 1.4,
          "2020-02-01": 16.0,
          "2020-02-02": 6.4,
          "2020-02-03": 19.7,
          "2020-02-04": 0.6,
          "2020-02-05": 0.3,
          "2020-02-06": 19.1,
          "2020-02-07": 18.6,
          "2020-02-08": 19.1,
          "2020-02-09": 2.3,
          "2020-02-10": 16.5,
          "2020-02-11": 12.0,
          "2020-02-12": 17.7,
          "2020-02-13": 14.3,
          "2020-02-14": 14.5,
          "2020-02-15": 2.6,
          "2020-02-16": 0.3,
          "2020-02-17": 9.1,
          "2020-02-18": 11.1,
          "2020-02-19": 11.4,
          "2020-02-20": 5.7,
          "2020-02-21": 15.3,
          "2020-02-22": 19.5,
          "2020-02-23": 3.1,
          "2020-02-24": 0.0,
          "2020-02-25": 2.6,
          "2020-02-26": 8.4,
          "2020-02-27": 8.9,
          "2020-02-28": 2.8,
          "2020-02-29": 2.3,
          "2020-03-01": 8.5,
          "2020-03-02": 16.3,
          "2020-03-03": 4.5,
          "2020-03-04": 18.6,
          "2020-03-05": 11.9,
          "2020-03-06": 17.0,
          "2020-03-07": 18.2,
          "2020-03-08": 2.9,
          "2020-03-09": 11.5,
          "2020-03-10": 15.7,
          "2020-03-11": 8.2,
          "2020-03-12": 15.8,
          "2020-03-13": 1.4,
          "2020-03-14": 11.1,
          "2020-03-15": 6.7,
          "2020-03-16": 16.2,
          "2020-03-17": 10.9,
          "2020-03-18": 12.4,
          "2020-03-19": 12.8,
          "2020-03-20": 9.1,
          "2020-03-21": 10.0,
          "2020-03-22": 3.5,
          "2020-03-23": 17.9,
          "2020-03-24": 9.3,
          "2020-03-25": 7.3,
          "2020-03-26": 0.6,
          "2020-03-27": 8.6,
          "2020-03-28": 16.4,
          "2020-03-29": 2.8,
          "2020-03-30": 1.5,
          "2020-03-31": 17.3,
          "2020-04-01": 8.3,
          "2020-04-02": 3.7,
          "2020-04-03": 6.2,
          "2020-04-04": 4.0,
          "2020-04-05": 15.8,
          "2020-04-06": 5.2,
          "2020-04-07": 11.4,
          "2020-04-08": 3.8,
          "2020-04-09": 0.4,
          "2020-04-10": 13.1,
          "2020-04-11": 5.7,
          "2020-04-12": 10.0,
          "2020-04-13": 10.3,
          "2020-04-14": 19.8,
          "2020-04-15": 4.6,
          "2020-04-16": 14.3,
          "2020-04-17": 1.9,
          "2020-04-18": 0.8,
          "2020-04-19": 9.8,
          "2020-04-20": 9.8,
          "2020-04-21": 13.3,
          "2020-04-22": 14.3,
          "2020-04-23": 5.5,
          "2020-04-24": 3.9,
          "2020-04-25": 17.8,
          "2020-04-26": 10.6,
          "2020-04-27": 3.1,
          "2020-04-28": 1.5,
          "2020-04-29": 3.1,
          "2020-04-30": 4.8,
          "2020-05-01": 8.2,
          "2020-05-02": 14.9,
          "2020-05-03": 6.4,
          "2020-05-04": 14.5,
          "2020-05-05": 11.8,
          "2020-05-06": 16.6,
          "2020-05-07": 10.1,
          "2020-05-08": 15.6,
          "2020-05-09": 7.6,
          "2020-05-10": 12.4,
          "2020-05-11": 1.0,
          "2020-05-12": 14.6,
          "2020-05-13": 18.6,
          "2020-05-14": 16.5,
          "2020-05-15": 10.1,
          "2020-05-16": 2.7,
          "2020-05-17": 0.2,
          "2020-05-18": 8.5,
          "2020-05-19": 10.1,
          "2020-05-20": 14.9,
          "2020-05-21": 17.8,
          "2020-05-22": 5.6,
          "2020-05-23": 6.1,
          "2020-05-24": 2.2,
          "2020-05-25": 13.5,
          "2020-05-26": 5.8,
          "2020-05-27": 11.1,
          "2020-05-28": 12.1,
          "2020-05-29": 19.9,
          "2020-05-30": 7.1,
          "2020-05-31": 12.8,
          "2020-06-01": 6.5,
          "2020-06-02": 14.3,
          "2020-06-03": 11.8,
          "2020-06-04": 18.0,
          "2020-06-05": 15.9,
          "2020-06-06": 2.7,
          "2020-06-07": 7.4,
          "2020-06-08": 6.1,
          "2020-06-09": 7.4,
          "2020-06-10": 8.7,
          "2020-06-11": 4.8,
          "2020-06-12": 17.0,
          "2020-06-13": 12.8,
          "2020-06-14": 7.1,
          "2020-06-15": 17.5,
          "2020-06-16": 7.6,
          "2020-06-17": 4.7,
          "2020-06-18": 11.1,
          "2020-06-19": 8.4,
          "2020-06-20": 7.0,
          "2020-06-21": 6.7,
          "2020-06-22": 0.2,
          "2020-06-23": 4.0,
          "2020-06-24": 19.5,
          "2020-06-25": 2.1,
          "2020-06-26": 5.0,
          "2020-06-27": 19.7,
          "2020-06-28": 13.2,
          "2020-06-29": 9.9,
          "2020-06-30": 16.7,
          "2020-07-01": 1.1,
          "2020-07-02": 6.3,
          "2020-07-03": 18.7,
          "2020-07-04": 0.9,
          "2020-07-05": 5.9,
          "2020-07-06": 0.7,
          "2020-07-07": 7.6,
          "2020-07-08": 12.1,
          "2020-07-09": 4.8,
          "2020-07-10": 16.0,
          "2020-07-11": 14.3,
          "2020-07-12": 15.9,
          "2020-07-13": 8.6,
          "2020-07-14": 8.0,
          "2020-07-15": 2.4,
          "2020-07-16": 7.0,
          "2020-07-17": 19.2,
          "2020-07-18": 7.9,
          "2020-07-19": 4.5,
          "2020-07-20": 10.3,
          "2020-07-21": 16.2,
          "2020-07-22": 17.7,
          "2020-07-23": 14.9,
          "2020-07-24": 3.6,
          "2020-07-25": 11.7,
          "2020-07-26": 12.2,
          "2020-07-27": 14.2,
          "2020-07-28": 10.0,
          "2020-07-29": 11.5,
          "2020-07-30": 11.8,
          "2020-07-31": 6.3,
          "2020-08-01": 13.0,
          "2020-08-02": 15.1,
          "2020-08-03": 5.0,
          "2020-08-04": 7.9,
          "2020-08-05": 4.5,
          "2020-08-06": 4.1,
          "2020-08-07": 17.6,
          "2020-08-08": 7.9,
          "2020-08-09": 0.4,
          "2020-08-10": 3.7,
          "2020-08-11": 9.0,
          "2020-08-12": 7.7,
          "2020-08-13": 19.2,
          "2020-08-14": 12.0,
          "2020-08-15": 12.3,
          "2020-08-16": 5.0,
          "2020-08-17": 7.9,
          "2020-08-18": 15.5,
          "2020-08-19": 2.4,
          "2020-08-20": 7.8,
          "2020-08-21": 2.9,
          "2020-08-22": 7.2,
          "2020-08-23": 15.2,
          "2020-08-24": 16.1,
          "2020-08-25": 19.4,
          "2020-08-26": 4.5,
          "2020-08-27": 7.8,
          "2020-08-28": 17.5,
          "2020-08-29": 8.4,
          "2020-08-30": 2.6,
          "2020-08-31": 2.5,
          "2020-09-01": 14.4,
          "2020-09-02": 15.7,
          "2020-09-03": 8.7,
          "2020-09-04": 15.9,
          "2020-09-05": 8.6,
          "2020-09-06": 5.1,
          "2020-09-07": 11.9,
          "2020-09-08": 0.4,
          "2020-09-09": 19.7,
          "2020-09-10": 16.9,
          "2020-09-11": 5.3,
          "2020-09-12": 15.3,
          "2020-09-13": 2.3,
          "2020-09-14": 6.8,
          "2020-09-15": 12.4,
          "2020-09-16": 2.2,
          "2020-09-17": 9.2,
          "2020-09-18": 14.6,
          "2020-09-19": 10.0,
          "2020-09-20": 7.1,
          "2020-09-21": 1.2,
          "2020-09-22": 14.9,
          "2020-09-23": 9.7,
          "2020-09-24": 15.1,
          "2020-09-25": 2.6,
          "2020-09-26": 14.2,
          "2020-09-27": 0.2,
          "2020-09-28": 18.7,
          "2020-09-29": 6.7,
          "2020-09-30": 3.7,
          "2020-10-01": 2.3,
          "2020-10-02": 17.9,
          "2020-10-03": 8.8,
          "2020-10-04": 13.0,
          "2020-10-05": 17.3,
          "2020-10-06": 2.1,
          "2020-10-07": 13.5,
          "2020-10-08": 3.6,
          "2020-10-09": 13.5,
          "2020-10-10": 17.5,
          "2020-10-11": 0.3,
          "2020-10-12": 4.9,
          "2020-10-13": 19.4,
          "2020-10-14": 0.1,
          "2020-10-15": 20.0,
          "2020-10-16": 19.9,
          "2020-10-17": 10.3,
          "2020-10-18": 7.3,
          "2020-10-19": 10.1,
          "2020-10-20": 18.8,
          "2020-10-21": 14.1,
          "2020-10-22": 1.9,
          "2020-10-23": 15.2,
          "2020-10-24": 13.8,
          "2020-10-25": 19.0,
          "2020-10-26": 16.3,
          "2020-10-27": 0.7,
          "2020-10-28": 6.0,
          "2020-10-29": 18.6,
          "2020-10-30": 17.8,
          "2020-10-31": 4.0,
          "2020-11-01": 16.6,
          "2020-11-02": 12.9,
          "2020-11-03": 8.6,
          "2020-11-04": 18.4,
          "2020-11-05": 15.8,
          "2020-11-06": 18.9,
          "2020-11-07": 18.2,
          "2020-11-08": 7.3,
          "2020-11-09": 15.2,
          "2020-11-10": 5.4,
          "2020-11-11": 11.8,
          "2020-11-12": 17.2,
          "2020-11-13": 3.8,
          "2020-11-14": 8.5,
          "2020-11-15": 12.3,
          "2020-11-16": 1.4,
          "2020-11-17": 8.9,
          "2020-11-18": 15.7,
          "2020-11-19": 2.8,
          "2020-11-20": 18.4,
          "2020-11-21": 7.5,
          "2020-11-22": 19.0,
          "2020-11-23": 14.2,
          "2020-11-24": 2.1,
          "2020-11-25": 0.7,
          "2020-11-26": 10.5,
          "2020-11-27": 6.0,
          "2020-11-28": 16.5,
          "2020-11-29": 6.6,
          "2020-11-30": 6.2,
          "2020-12-01": 6.7,
          "2020-12-02": 14.0,
          "2020-12-03": 11.1,
          "2020-12-04": 14.8,
          "2020-12-05": 14.9,
          "2020-12-06": 18.6,
          "2020-12-07": 16.0,
          "2020-12-08": 11.2,
          "2020-12-09": 6.2,
          "2020-12-10": 17.5,
          "2020-12-11": 16.7,
          "2020-12-12": 6.6,
          "2020-12-13": 5.4,
          "2020-12-14": 14.1,
          "2020-12-15": 13.4,
          "2020-12-16": 9.4,
          "2020-12-17": 7.9,
          "2020-12-18": 0.1,
          "2020-12-19": 3.6,
          "2020-12-20": 16.3,
          "2020-12-21": 0.7,
          "2020-12-22": 12.8,
          "2020-12-23": 4.1,
          "2020-12-24": 12.6,
          "2020-12-25": 16.3,
          "2020-12-26": 9.4,
          "2020-12-27": 15.3,
          "2020-12-28": 12.4,
          "2020-12-29": 1.3,
          "2020-12-30": 0.6,
          "2020-12-31": 1.0
        }
      },
      "geometry": {
        "type": "Point",
        "coordinates": [
          106.8804,
          -6.24127777765
        ]
      }
    },
    {
      "type": "Feature",
      "properties": {
        "ARR_Name": "PA Manggarai",
        "Device_ID": "ARR_3",
        "Brand": "Campbell",
        "Latitude": -6.207633,
        "Longitude": 106.848486,
        "Elevation": "No Data",
        "Catchment_Name": "DAS Ciliwung",
        "Built_Year": 2015,
        "Provinsi": "DKI Jakarta",
        "Kota": "Jakarta Pusat",
        "Kecamatan": "Jakarta Selatan",
        "Kelurahan": "Menteng",
        "Manager": "BBWS Ciliwung Cisadane",
        "River_Region": "WS Ciliwung Cisadane",
        "Station_Condition": "Poor",
        "Device_Condition": "Good",
        "Type": "Telemetri",
        "Data_Frequency": "15 minutes",
        "Last_Maintenance": "20-08-2020",
        "Data_Completeness": "98%",
        "Reading": {
          "2020-01-01": 0.0,
          "2020-01-02": 0.0,
          "2020-01-03": 1.5,
          "2020-01-04": 3.0,
          "2020-01-05": 0.0,
          "2020-01-06": 11.5,
          "2020-01-07": 0.0,
          "2020-01-08": 8.5,
          "2020-01-09": 3.0,
          "2020-01-10": 18.5,
          "2020-01-11": 0.0,
          "2020-01-12": 0.0,
          "2020-01-13": 0.0,
          "2020-01-14": 0.0,
          "2020-01-15": 0.0,
          "2020-01-16": 0.0,
          "2020-01-17": 0.0,
          "2020-01-18": 0.0,
          "2020-01-19": 0.0,
          "2020-01-20": 0.0,
          "2020-01-21": 0.0,
          "2020-01-22": 27.0,
          "2020-01-23": 0.0,
          "2020-01-24": 88.0,
          "2020-01-25": 0.0,
          "2020-01-26": 0.0,
          "2020-01-27": 0.0,
          "2020-01-28": 0.0,
          "2020-01-29": 8.0,
          "2020-01-30": 0.0,
          "2020-01-31": 20.0,
          "2020-02-01": 72.0,
          "2020-02-02": 19.5,
          "2020-02-03": 3.5,
          "2020-02-04": 0.0,
          "2020-02-05": 1.5,
          "2020-02-06": 129.0,
          "2020-02-07": 15.0,
          "2020-02-08": 31.0,
          "2020-02-09": 0.0,
          "2020-02-10": 0.0,
          "2020-02-11": 0.0,
          "2020-02-12": 0.0,
          "2020-02-13": 0.0,
          "2020-02-14": 0.0,
          "2020-02-15": 0.0,
          "2020-02-16": 31.5,
          "2020-02-17": 0.0,
          "2020-02-18": 12.5,
          "2020-02-19": 40.0,
          "2020-02-20": 44.0,
          "2020-02-21": 78.0,
          "2020-02-22": 228.0,
          "2020-02-23": 5.0,
          "2020-02-24": 4.5,
          "2020-02-25": 218.5,
          "2020-02-26": 3.0,
          "2020-02-27": 39.5,
          "2020-02-28": 8.5,
          "2020-02-29": 0.0,
          "2020-03-01": 20.5,
          "2020-03-02": 0.0,
          "2020-03-03": 0.0,
          "2020-03-04": 37.0,
          "2020-03-05": 2.0,
          "2020-03-06": 0.0,
          "2020-03-07": 0.0,
          "2020-03-08": 0.0,
          "2020-03-09": 0.0,
          "2020-03-10": 0.0,
          "2020-03-11": 0.0,
          "2020-03-12": 14.0,
          "2020-03-13": 0.0,
          "2020-03-14": 3.0,
          "2020-03-15": 46.0,
          "2020-03-16": 8.0,
          "2020-03-17": 0.0,
          "2020-03-18": 0.0,
          "2020-03-19": 8.5,
          "2020-03-20": 74.5,
          "2020-03-21": 0.0,
          "2020-03-22": 14.0,
          "2020-03-23": 0.0,
          "2020-03-24": 0.0,
          "2020-03-25": 0.0,
          "2020-03-26": 0.0,
          "2020-03-27": 0.0,
          "2020-03-28": 0.0,
          "2020-03-29": 0.0,
          "2020-03-30": 9.5,
          "2020-03-31": 11.5,
          "2020-04-01": 0.0,
          "2020-04-02": 1.5,
          "2020-04-03": 2.0,
          "2020-04-04": 0.0,
          "2020-04-05": 0.0,
          "2020-04-06": 60.5,
          "2020-04-07": 0.0,
          "2020-04-08": 15.0,
          "2020-04-09": 12.0,
          "2020-04-10": 41.5,
          "2020-04-11": 0.0,
          "2020-04-12": 7.5,
          "2020-04-13": 15.0,
          "2020-04-14": 11.0,
          "2020-04-15": 0.0,
          "2020-04-16": 0.0,
          "2020-04-17": 0.0,
          "2020-04-18": 0.0,
          "2020-04-19": 0.0,
          "2020-04-20": 0.0,
          "2020-04-21": 0.0,
          "2020-04-22": 0.0,
          "2020-04-23": 0.0,
          "2020-04-24": 0.0,
          "2020-04-25": 0.0,
          "2020-04-26": 0.0,
          "2020-04-27": 8.0,
          "2020-04-28": 11.0,
          "2020-04-29": 0.0,
          "2020-04-30": 0.0,
          "2020-05-01": 0.0,
          "2020-05-02": 0.0,
          "2020-05-03": 0.0,
          "2020-05-04": 0.0,
          "2020-05-05": 0.0,
          "2020-05-06": 0.0,
          "2020-05-07": 0.0,
          "2020-05-08": 0.0,
          "2020-05-09": 1.5,
          "2020-05-10": 0.0,
          "2020-05-11": 0.0,
          "2020-05-12": 10.5,
          "2020-05-13": 0.0,
          "2020-05-14": 0.0,
          "2020-05-15": 0.0,
          "2020-05-16": 0.0,
          "2020-05-17": 0.0,
          "2020-05-18": 10.0,
          "2020-05-19": 0.0,
          "2020-05-20": 23.5,
          "2020-05-21": 0.0,
          "2020-05-22": 0.0,
          "2020-05-23": 0.0,
          "2020-05-24": 0.0,
          "2020-05-25": 0.0,
          "2020-05-26": 0.0,
          "2020-05-27": 32.0,
          "2020-05-28": 0.0,
          "2020-05-29": 0.0,
          "2020-05-30": 0.0,
          "2020-05-31": 0.0,
          "2020-06-01": 0.0,
          "2020-06-02": 0.0,
          "2020-06-03": 8.0,
          "2020-06-04": 0.0,
          "2020-06-05": 0.0,
          "2020-06-06": 0.0,
          "2020-06-07": 0.0,
          "2020-06-08": 0.0,
          "2020-06-09": 27.0,
          "2020-06-10": 0.0,
          "2020-06-11": 24.0,
          "2020-06-12": 0.0,
          "2020-06-13": 0.0,
          "2020-06-14": 0.0,
          "2020-06-15": 0.0,
          "2020-06-16": 0.0,
          "2020-06-17": 0.0,
          "2020-06-18": 0.0,
          "2020-06-19": 0.0,
          "2020-06-20": 0.0,
          "2020-06-21": 0.0,
          "2020-06-22": 3.0,
          "2020-06-23": 0.0,
          "2020-06-24": 0.0,
          "2020-06-25": 0.0,
          "2020-06-26": 0.0,
          "2020-06-27": 0.0,
          "2020-06-28": 0.0,
          "2020-06-29": 0.0,
          "2020-06-30": 0.0,
          "2020-07-01": 18.0,
          "2020-07-02": 0.0,
          "2020-07-03": 0.0,
          "2020-07-04": 0.0,
          "2020-07-05": 0.0,
          "2020-07-06": 0.0,
          "2020-07-07": 0.0,
          "2020-07-08": 0.0,
          "2020-07-09": 0.0,
          "2020-07-10": 3.0,
          "2020-07-11": 0.0,
          "2020-07-12": 0.0,
          "2020-07-13": 0.0,
          "2020-07-14": 17.5,
          "2020-07-15": 17.5,
          "2020-07-16": 1.5,
          "2020-07-17": 0.0,
          "2020-07-18": 0.0,
          "2020-07-19": 0.0,
          "2020-07-20": 0.0,
          "2020-07-21": 25.0,
          "2020-07-22": 0.0,
          "2020-07-23": 0.0,
          "2020-07-24": 0.0,
          "2020-07-25": 0.0,
          "2020-07-26": 0.0,
          "2020-07-27": 0.0,
          "2020-07-28": 0.0,
          "2020-07-29": 0.0,
          "2020-07-30": 0.0,
          "2020-07-31": 0.0,
          "2020-08-01": 0.0,
          "2020-08-02": 0.0,
          "2020-08-03": 0.0,
          "2020-08-04": 0.0,
          "2020-08-05": 0.0,
          "2020-08-06": 0.0,
          "2020-08-07": 0.0,
          "2020-08-08": 0.0,
          "2020-08-09": 0.0,
          "2020-08-10": 0.0,
          "2020-08-11": 0.0,
          "2020-08-12": 0.0,
          "2020-08-13": 0.0,
          "2020-08-14": 0.0,
          "2020-08-15": 0.0,
          "2020-08-16": 0.0,
          "2020-08-17": 0.0,
          "2020-08-18": 0.0,
          "2020-08-19": 0.0,
          "2020-08-20": 0.0,
          "2020-08-21": 0.0,
          "2020-08-22": 0.0,
          "2020-08-23": 0.0,
          "2020-08-24": 0.0,
          "2020-08-25": 0.0,
          "2020-08-26": 0.0,
          "2020-08-27": 0.0,
          "2020-08-28": 0.0,
          "2020-08-29": 0.0,
          "2020-08-30": 0.0,
          "2020-08-31": 0.0,
          "2020-09-01": 0.0,
          "2020-09-02": 0.0,
          "2020-09-03": 0.0,
          "2020-09-04": 0.0,
          "2020-09-05": 0.0,
          "2020-09-06": 0.0,
          "2020-09-07": 0.0,
          "2020-09-08": 0.0,
          "2020-09-09": 0.0,
          "2020-09-10": 0.0,
          "2020-09-11": 0.0,
          "2020-09-12": 0.0,
          "2020-09-13": 0.0,
          "2020-09-14": 17.5,
          "2020-09-15": 32.5,
          "2020-09-16": 6.0,
          "2020-09-17": 0.0,
          "2020-09-18": 0.0,
          "2020-09-19": 0.0,
          "2020-09-20": 1.5,
          "2020-09-21": 2.5,
          "2020-09-22": 31.0,
          "2020-09-23": 0.0,
          "2020-09-24": 0.0,
          "2020-09-25": 0.0,
          "2020-09-26": 0.0,
          "2020-09-27": 0.0,
          "2020-09-28": 0.0,
          "2020-09-29": 0.0,
          "2020-09-30": 0.0,
          "2020-10-01": 0.0,
          "2020-10-02": 0.0,
          "2020-10-03": 31.0,
          "2020-10-04": 18.5,
          "2020-10-05": 31.5,
          "2020-10-06": 0.0,
          "2020-10-07": 0.0,
          "2020-10-08": 0.0,
          "2020-10-09": 6.5,
          "2020-10-10": 0.0,
          "2020-10-11": 11.5,
          "2020-10-12": 0.0,
          "2020-10-13": 0.0,
          "2020-10-14": 0.0,
          "2020-10-15": 0.0,
          "2020-10-16": 0.0,
          "2020-10-17": 58.0,
          "2020-10-18": 0.0,
          "2020-10-19": 2.0,
          "2020-10-20": 21.0,
          "2020-10-21": 0.0,
          "2020-10-22": 21.5,
          "2020-10-23": 0.0,
          "2020-10-24": 0.0,
          "2020-10-25": 0.0,
          "2020-10-26": 0.0,
          "2020-10-27": 5.5,
          "2020-10-28": 9.0,
          "2020-10-29": 0.0,
          "2020-10-30": 0.0,
          "2020-10-31": 0.0,
          "2020-11-01": 5.5,
          "2020-11-02": 0.0,
          "2020-11-03": 0.0,
          "2020-11-04": 0.0,
          "2020-11-05": 17.0,
          "2020-11-06": 4.0,
          "2020-11-07": 5.5,
          "2020-11-08": 0.0,
          "2020-11-09": 13.5,
          "2020-11-10": 0.0,
          "2020-11-11": 0.0,
          "2020-11-12": 0.0,
          "2020-11-13": 0.0,
          "2020-11-14": 0.0,
          "2020-11-15": 0.0,
          "2020-11-16": 0.0,
          "2020-11-17": 0.0,
          "2020-11-18": 0.0,
          "2020-11-19": 0.0,
          "2020-11-20": 0.0,
          "2020-11-21": 0.0,
          "2020-11-22": 0.0,
          "2020-11-23": 14.5,
          "2020-11-24": 0.0,
          "2020-11-25": 25.0,
          "2020-11-26": 46.0,
          "2020-11-27": 0.0,
          "2020-11-28": 13.5,
          "2020-11-29": 15.0,
          "2020-11-30": 0.0,
          "2020-12-01": 0.0,
          "2020-12-02": 0.0,
          "2020-12-03": 31.0,
          "2020-12-04": 18.5,
          "2020-12-05": 31.5,
          "2020-12-06": 0.0,
          "2020-12-07": 0.0,
          "2020-12-08": 0.0,
          "2020-12-09": 6.5,
          "2020-12-10": 0.0,
          "2020-12-11": 11.5,
          "2020-12-12": 0.0,
          "2020-12-13": 0.0,
          "2020-12-14": 0.0,
          "2020-12-15": 0.0,
          "2020-12-16": 0.0,
          "2020-12-17": 58.0,
          "2020-12-18": 0.0,
          "2020-12-19": 2.0,
          "2020-12-20": 21.0,
          "2020-12-21": 0.0,
          "2020-12-22": 21.5,
          "2020-12-23": 0.0,
          "2020-12-24": 0.0,
          "2020-12-25": 0.0,
          "2020-12-26": 0.0,
          "2020-12-27": 5.5,
          "2020-12-28": 9.0,
          "2020-12-29": 0.0,
          "2020-12-30": 0.0,
          "2020-12-31": 0.0
        },
        "Reading_(+6hr)": "150 mm",
        "Reading_Manual": {
          "2020-01-01": 0.2,
          "2020-01-02": 0.8,
          "2020-01-03": 4.0,
          "2020-01-04": 18.4,
          "2020-01-05": 10.1,
          "2020-01-06": 16.5,
          "2020-01-07": 8.4,
          "2020-01-08": 8.7,
          "2020-01-09": 12.5,
          "2020-01-10": 16.6,
          "2020-01-11": 0.5,
          "2020-01-12": 13.5,
          "2020-01-13": 18.7,
          "2020-01-14": 3.9,
          "2020-01-15": 3.6,
          "2020-01-16": 13.6,
          "2020-01-17": 8.7,
          "2020-01-18": 10.4,
          "2020-01-19": 6.4,
          "2020-01-20": 8.6,
          "2020-01-21": 16.2,
          "2020-01-22": 8.7,
          "2020-01-23": 13.9,
          "2020-01-24": 19.8,
          "2020-01-25": 3.8,
          "2020-01-26": 4.3,
          "2020-01-27": 3.9,
          "2020-01-28": 16.0,
          "2020-01-29": 8.2,
          "2020-01-30": 0.1,
          "2020-01-31": 5.2,
          "2020-02-01": 16.2,
          "2020-02-02": 3.7,
          "2020-02-03": 7.4,
          "2020-02-04": 15.1,
          "2020-02-05": 17.0,
          "2020-02-06": 11.3,
          "2020-02-07": 9.8,
          "2020-02-08": 11.4,
          "2020-02-09": 19.8,
          "2020-02-10": 11.8,
          "2020-02-11": 12.2,
          "2020-02-12": 5.6,
          "2020-02-13": 1.6,
          "2020-02-14": 16.2,
          "2020-02-15": 1.0,
          "2020-02-16": 11.4,
          "2020-02-17": 3.3,
          "2020-02-18": 1.0,
          "2020-02-19": 19.2,
          "2020-02-20": 1.7,
          "2020-02-21": 6.2,
          "2020-02-22": 8.9,
          "2020-02-23": 17.9,
          "2020-02-24": 9.1,
          "2020-02-25": 7.8,
          "2020-02-26": 6.2,
          "2020-02-27": 2.4,
          "2020-02-28": 14.1,
          "2020-02-29": 16.8,
          "2020-03-01": 12.1,
          "2020-03-02": 1.0,
          "2020-03-03": 18.0,
          "2020-03-04": 16.3,
          "2020-03-05": 13.7,
          "2020-03-06": 9.6,
          "2020-03-07": 8.4,
          "2020-03-08": 3.3,
          "2020-03-09": 15.3,
          "2020-03-10": 6.9,
          "2020-03-11": 16.5,
          "2020-03-12": 6.9,
          "2020-03-13": 9.0,
          "2020-03-14": 15.5,
          "2020-03-15": 1.0,
          "2020-03-16": 19.5,
          "2020-03-17": 17.9,
          "2020-03-18": 18.6,
          "2020-03-19": 2.9,
          "2020-03-20": 4.2,
          "2020-03-21": 17.9,
          "2020-03-22": 12.6,
          "2020-03-23": 19.4,
          "2020-03-24": 2.9,
          "2020-03-25": 11.5,
          "2020-03-26": 19.1,
          "2020-03-27": 7.9,
          "2020-03-28": 6.2,
          "2020-03-29": 11.2,
          "2020-03-30": 17.1,
          "2020-03-31": 16.6,
          "2020-04-01": 3.0,
          "2020-04-02": 10.3,
          "2020-04-03": 0.7,
          "2020-04-04": 3.4,
          "2020-04-05": 15.8,
          "2020-04-06": 10.7,
          "2020-04-07": 6.9,
          "2020-04-08": 11.8,
          "2020-04-09": 11.0,
          "2020-04-10": 1.7,
          "2020-04-11": 3.7,
          "2020-04-12": 16.3,
          "2020-04-13": 10.5,
          "2020-04-14": 2.2,
          "2020-04-15": 2.7,
          "2020-04-16": 19.7,
          "2020-04-17": 8.3,
          "2020-04-18": 11.5,
          "2020-04-19": 16.1,
          "2020-04-20": 12.6,
          "2020-04-21": 16.8,
          "2020-04-22": 14.0,
          "2020-04-23": 8.7,
          "2020-04-24": 19.7,
          "2020-04-25": 16.8,
          "2020-04-26": 9.8,
          "2020-04-27": 14.8,
          "2020-04-28": 19.9,
          "2020-04-29": 2.7,
          "2020-04-30": 12.4,
          "2020-05-01": 14.7,
          "2020-05-02": 1.3,
          "2020-05-03": 16.7,
          "2020-05-04": 17.7,
          "2020-05-05": 19.0,
          "2020-05-06": 7.2,
          "2020-05-07": 20.0,
          "2020-05-08": 5.1,
          "2020-05-09": 10.8,
          "2020-05-10": 13.6,
          "2020-05-11": 2.8,
          "2020-05-12": 6.1,
          "2020-05-13": 9.2,
          "2020-05-14": 18.6,
          "2020-05-15": 5.3,
          "2020-05-16": 11.1,
          "2020-05-17": 6.3,
          "2020-05-18": 16.7,
          "2020-05-19": 3.2,
          "2020-05-20": 1.9,
          "2020-05-21": 19.2,
          "2020-05-22": 14.6,
          "2020-05-23": 3.9,
          "2020-05-24": 11.7,
          "2020-05-25": 15.0,
          "2020-05-26": 10.6,
          "2020-05-27": 19.1,
          "2020-05-28": 16.3,
          "2020-05-29": 15.0,
          "2020-05-30": 4.5,
          "2020-05-31": 16.1,
          "2020-06-01": 8.9,
          "2020-06-02": 16.1,
          "2020-06-03": 13.1,
          "2020-06-04": 6.8,
          "2020-06-05": 4.3,
          "2020-06-06": 16.3,
          "2020-06-07": 14.9,
          "2020-06-08": 9.4,
          "2020-06-09": 6.9,
          "2020-06-10": 19.7,
          "2020-06-11": 16.8,
          "2020-06-12": 13.7,
          "2020-06-13": 17.9,
          "2020-06-14": 3.3,
          "2020-06-15": 16.5,
          "2020-06-16": 10.4,
          "2020-06-17": 9.7,
          "2020-06-18": 3.0,
          "2020-06-19": 3.8,
          "2020-06-20": 0.7,
          "2020-06-21": 4.7,
          "2020-06-22": 18.3,
          "2020-06-23": 0.5,
          "2020-06-24": 10.0,
          "2020-06-25": 6.3,
          "2020-06-26": 15.5,
          "2020-06-27": 15.0,
          "2020-06-28": 17.8,
          "2020-06-29": 5.2,
          "2020-06-30": 4.0,
          "2020-07-01": 12.6,
          "2020-07-02": 3.2,
          "2020-07-03": 14.2,
          "2020-07-04": 17.9,
          "2020-07-05": 19.7,
          "2020-07-06": 15.4,
          "2020-07-07": 2.5,
          "2020-07-08": 6.4,
          "2020-07-09": 0.3,
          "2020-07-10": 5.0,
          "2020-07-11": 0.3,
          "2020-07-12": 10.1,
          "2020-07-13": 4.9,
          "2020-07-14": 5.5,
          "2020-07-15": 7.4,
          "2020-07-16": 13.0,
          "2020-07-17": 7.0,
          "2020-07-18": 18.2,
          "2020-07-19": 5.3,
          "2020-07-20": 7.3,
          "2020-07-21": 16.0,
          "2020-07-22": 12.1,
          "2020-07-23": 5.2,
          "2020-07-24": 11.5,
          "2020-07-25": 3.1,
          "2020-07-26": 0.1,
          "2020-07-27": 11.8,
          "2020-07-28": 18.1,
          "2020-07-29": 2.3,
          "2020-07-30": 13.4,
          "2020-07-31": 2.8,
          "2020-08-01": 16.8,
          "2020-08-02": 6.4,
          "2020-08-03": 7.0,
          "2020-08-04": 13.6,
          "2020-08-05": 7.1,
          "2020-08-06": 16.6,
          "2020-08-07": 11.0,
          "2020-08-08": 12.7,
          "2020-08-09": 1.0,
          "2020-08-10": 6.5,
          "2020-08-11": 16.2,
          "2020-08-12": 2.4,
          "2020-08-13": 0.8,
          "2020-08-14": 15.5,
          "2020-08-15": 3.5,
          "2020-08-16": 11.0,
          "2020-08-17": 8.3,
          "2020-08-18": 1.2,
          "2020-08-19": 15.6,
          "2020-08-20": 5.5,
          "2020-08-21": 7.1,
          "2020-08-22": 17.0,
          "2020-08-23": 13.4,
          "2020-08-24": 16.7,
          "2020-08-25": 16.0,
          "2020-08-26": 19.9,
          "2020-08-27": 12.7,
          "2020-08-28": 8.5,
          "2020-08-29": 13.7,
          "2020-08-30": 16.0,
          "2020-08-31": 18.5,
          "2020-09-01": 18.6,
          "2020-09-02": 14.4,
          "2020-09-03": 11.4,
          "2020-09-04": 6.6,
          "2020-09-05": 5.8,
          "2020-09-06": 9.0,
          "2020-09-07": 2.0,
          "2020-09-08": 15.3,
          "2020-09-09": 14.0,
          "2020-09-10": 16.0,
          "2020-09-11": 13.4,
          "2020-09-12": 5.7,
          "2020-09-13": 9.8,
          "2020-09-14": 9.1,
          "2020-09-15": 15.5,
          "2020-09-16": 1.3,
          "2020-09-17": 17.8,
          "2020-09-18": 12.1,
          "2020-09-19": 5.2,
          "2020-09-20": 12.7,
          "2020-09-21": 0.6,
          "2020-09-22": 0.5,
          "2020-09-23": 10.5,
          "2020-09-24": 7.3,
          "2020-09-25": 18.1,
          "2020-09-26": 8.2,
          "2020-09-27": 11.3,
          "2020-09-28": 12.3,
          "2020-09-29": 1.1,
          "2020-09-30": 4.2,
          "2020-10-01": 4.6,
          "2020-10-02": 4.1,
          "2020-10-03": 5.1,
          "2020-10-04": 19.0,
          "2020-10-05": 11.2,
          "2020-10-06": 4.0,
          "2020-10-07": 10.2,
          "2020-10-08": 1.2,
          "2020-10-09": 1.2,
          "2020-10-10": 7.1,
          "2020-10-11": 13.9,
          "2020-10-12": 8.9,
          "2020-10-13": 15.4,
          "2020-10-14": 9.3,
          "2020-10-15": 0.9,
          "2020-10-16": 14.7,
          "2020-10-17": 13.1,
          "2020-10-18": 9.6,
          "2020-10-19": 19.4,
          "2020-10-20": 17.6,
          "2020-10-21": 10.2,
          "2020-10-22": 4.4,
          "2020-10-23": 19.0,
          "2020-10-24": 6.3,
          "2020-10-25": 8.1,
          "2020-10-26": 16.3,
          "2020-10-27": 3.3,
          "2020-10-28": 20.0,
          "2020-10-29": 1.2,
          "2020-10-30": 5.5,
          "2020-10-31": 8.3,
          "2020-11-01": 13.3,
          "2020-11-02": 2.6,
          "2020-11-03": 2.8,
          "2020-11-04": 5.3,
          "2020-11-05": 5.8,
          "2020-11-06": 2.4,
          "2020-11-07": 2.3,
          "2020-11-08": 18.1,
          "2020-11-09": 2.0,
          "2020-11-10": 9.8,
          "2020-11-11": 8.4,
          "2020-11-12": 14.2,
          "2020-11-13": 13.9,
          "2020-11-14": 9.1,
          "2020-11-15": 1.4,
          "2020-11-16": 13.6,
          "2020-11-17": 15.8,
          "2020-11-18": 13.9,
          "2020-11-19": 12.0,
          "2020-11-20": 6.3,
          "2020-11-21": 14.7,
          "2020-11-22": 7.9,
          "2020-11-23": 18.9,
          "2020-11-24": 3.2,
          "2020-11-25": 18.8,
          "2020-11-26": 5.1,
          "2020-11-27": 11.2,
          "2020-11-28": 16.1,
          "2020-11-29": 19.1,
          "2020-11-30": 16.1,
          "2020-12-01": 13.4,
          "2020-12-02": 3.4,
          "2020-12-03": 7.3,
          "2020-12-04": 14.4,
          "2020-12-05": 6.4,
          "2020-12-06": 19.4,
          "2020-12-07": 19.5,
          "2020-12-08": 13.9,
          "2020-12-09": 18.4,
          "2020-12-10": 13.5,
          "2020-12-11": 7.4,
          "2020-12-12": 12.0,
          "2020-12-13": 8.1,
          "2020-12-14": 1.4,
          "2020-12-15": 5.0,
          "2020-12-16": 3.5,
          "2020-12-17": 4.2,
          "2020-12-18": 0.7,
          "2020-12-19": 17.0,
          "2020-12-20": 4.7,
          "2020-12-21": 11.7,
          "2020-12-22": 13.4,
          "2020-12-23": 5.7,
          "2020-12-24": 11.4,
          "2020-12-25": 19.7,
          "2020-12-26": 12.6,
          "2020-12-27": 0.8,
          "2020-12-28": 7.5,
          "2020-12-29": 16.8,
          "2020-12-30": 2.2,
          "2020-12-31": 9.3
        }
      },
      "geometry": {
        "type": "Point",
        "coordinates": [
          106.848486112,
          -6.20763333321
        ]
      }
    },
    {
      "type": "Feature",
      "properties": {
        "ARR_Name": "Kalideres",
        "Device_ID": "ARR_4",
        "Brand": "PT. INTI",
        "Latitude": -6.15818,
        "Longitude": 106.7013,
        "Elevation": "No Data",
        "Catchment_Name": "DAS Angke",
        "Built_Year": 2015,
        "Provinsi": "DKI Jakarta",
        "Kota": "Jakarta Barat",
        "Kecamatan": "Jakarta Barat",
        "Kelurahan": "Kalideres",
        "Manager": "BBWS Ciliwung Cisadane",
        "River_Region": "WS Ciliwung Cisadane",
        "Station_Condition": "Poor",
        "Device_Condition": "Good",
        "Type": "Telemetri",
        "Data_Frequency": "15 minutes",
        "Last_Maintenance": "20-08-2020",
        "Data_Completeness": "98%",
        "Reading": {
          "2020-01-01": 34.0,
          "2020-01-02": 0.0,
          "2020-01-03": 2.0,
          "2020-01-04": 2.5,
          "2020-01-05": 11.0,
          "2020-01-06": 17.5,
          "2020-01-07": 22.0,
          "2020-01-08": 23.0,
          "2020-01-09": 7.5,
          "2020-01-10": 0.0,
          "2020-01-11": 0.0,
          "2020-01-12": 0.0,
          "2020-01-13": 4.0,
          "2020-01-14": 13.0,
          "2020-01-15": 1.0,
          "2020-01-16": 0.5,
          "2020-01-17": 35.0,
          "2020-01-18": 0.0,
          "2020-01-19": 7.0,
          "2020-01-20": 0.0,
          "2020-01-21": 0.0,
          "2020-01-22": 1.0,
          "2020-01-23": 16.5,
          "2020-01-24": 0.0,
          "2020-01-25": 10.5,
          "2020-01-26": 8.0,
          "2020-01-27": 3.0,
          "2020-01-28": 5.5,
          "2020-01-29": 40.5,
          "2020-01-30": 0.0,
          "2020-01-31": 18.0,
          "2020-02-01": 15.0,
          "2020-02-02": 4.0,
          "2020-02-03": 16.0,
          "2020-02-04": 2.0,
          "2020-02-05": 35.0,
          "2020-02-06": 1.0,
          "2020-02-07": 113.0,
          "2020-02-08": 2.0,
          "2020-02-09": 7.0,
          "2020-02-10": 0.0,
          "2020-02-11": 0.5,
          "2020-02-12": 18.0,
          "2020-02-13": 59.0,
          "2020-02-14": 1.0,
          "2020-02-15": 4.5,
          "2020-02-16": 22.0,
          "2020-02-17": 3.0,
          "2020-02-18": 23.5,
          "2020-02-19": 58.5,
          "2020-02-20": 22.0,
          "2020-02-21": 9.5,
          "2020-02-22": 1.0,
          "2020-02-23": 26.0,
          "2020-02-24": 46.0,
          "2020-02-25": 1.0,
          "2020-02-26": 19.0,
          "2020-02-27": 1.5,
          "2020-02-28": 3.5,
          "2020-02-29": 35.0,
          "2020-03-01": 24.0,
          "2020-03-02": 2.5,
          "2020-03-03": 55.5,
          "2020-03-04": 13.0,
          "2020-03-05": 7.0,
          "2020-03-06": 9.0,
          "2020-03-07": 0.0,
          "2020-03-08": 4.0,
          "2020-03-09": 0.0,
          "2020-03-10": 1.0,
          "2020-03-11": 10.5,
          "2020-03-12": 20.0,
          "2020-03-13": 0.0,
          "2020-03-14": 1.0,
          "2020-03-15": 2.5,
          "2020-03-16": 41.0,
          "2020-03-17": 13.0,
          "2020-03-18": 27.0,
          "2020-03-19": 5.0,
          "2020-03-20": 25.0,
          "2020-03-21": 11.0,
          "2020-03-22": 37.0,
          "2020-03-23": 16.5,
          "2020-03-24": 53.5,
          "2020-03-25": 35.0,
          "2020-03-26": 47.5,
          "2020-03-27": 14.0,
          "2020-03-28": 1.5,
          "2020-03-29": 40.0,
          "2020-03-30": 2.0,
          "2020-03-31": 16.5,
          "2020-04-01": 32.0,
          "2020-04-02": 1.0,
          "2020-04-03": 0.0,
          "2020-04-04": 49.0,
          "2020-04-05": 8.5,
          "2020-04-06": 11.5,
          "2020-04-07": 1.0,
          "2020-04-08": 5.5,
          "2020-04-09": 1.5,
          "2020-04-10": 18.0,
          "2020-04-11": 0.0,
          "2020-04-12": 0.0,
          "2020-04-13": 3.0,
          "2020-04-14": 0.0,
          "2020-04-15": 36.5,
          "2020-04-16": 0.0,
          "2020-04-17": 42.0,
          "2020-04-18": 74.0,
          "2020-04-19": 0.0,
          "2020-04-20": 5.5,
          "2020-04-21": 2.0,
          "2020-04-22": 0.0,
          "2020-04-23": 0.0,
          "2020-04-24": 6.0,
          "2020-04-25": 0.0,
          "2020-04-26": 23.5,
          "2020-04-27": 18.0,
          "2020-04-28": 9.0,
          "2020-04-29": 21.5,
          "2020-04-30": 1.0,
          "2020-05-01": 49.0,
          "2020-05-02": 1.5,
          "2020-05-03": 0.0,
          "2020-05-04": 0.0,
          "2020-05-05": 36.0,
          "2020-05-06": 27.5,
          "2020-05-07": 0.0,
          "2020-05-08": 2.0,
          "2020-05-09": 0.0,
          "2020-05-10": 3.5,
          "2020-05-11": 1.5,
          "2020-05-12": 4.5,
          "2020-05-13": 0.0,
          "2020-05-14": 0.0,
          "2020-05-15": 0.0,
          "2020-05-16": 0.0,
          "2020-05-17": 56.0,
          "2020-05-18": 51.0,
          "2020-05-19": 0.0,
          "2020-05-20": 56.5,
          "2020-05-21": 0.0,
          "2020-05-22": 28.5,
          "2020-05-23": 12.0,
          "2020-05-24": 61.5,
          "2020-05-25": 1.0,
          "2020-05-26": 0.0,
          "2020-05-27": 5.0,
          "2020-05-28": 2.0,
          "2020-05-29": 1.5,
          "2020-05-30": 0.5,
          "2020-05-31": 0.0,
          "2020-06-01": 6.5,
          "2020-06-02": 22.5,
          "2020-06-03": 0.0,
          "2020-06-04": 0.0,
          "2020-06-05": 7.5,
          "2020-06-06": 0.0,
          "2020-06-07": 0.0,
          "2020-06-08": 0.0,
          "2020-06-09": 0.0,
          "2020-06-10": 0.0,
          "2020-06-11": 11.0,
          "2020-06-12": 1.0,
          "2020-06-13": 1.0,
          "2020-06-14": 0.0,
          "2020-06-15": 0.0,
          "2020-06-16": 0.0,
          "2020-06-17": 0.0,
          "2020-06-18": 16.5,
          "2020-06-19": 1.0,
          "2020-06-20": 0.0,
          "2020-06-21": 0.0,
          "2020-06-22": 2.5,
          "2020-06-23": 11.0,
          "2020-06-24": 44.0,
          "2020-06-25": 0.0,
          "2020-06-26": 0.0,
          "2020-06-27": 0.0,
          "2020-06-28": 0.0,
          "2020-06-29": 0.0,
          "2020-06-30": 0.0,
          "2020-07-01": 0.0,
          "2020-07-02": 19.5,
          "2020-07-03": 1.0,
          "2020-07-04": 0.0,
          "2020-07-05": 0.0,
          "2020-07-06": 2.0,
          "2020-07-07": 0.0,
          "2020-07-08": 35.0,
          "2020-07-09": 0.0,
          "2020-07-10": 0.0,
          "2020-07-11": 0.0,
          "2020-07-12": 3.0,
          "2020-07-13": 0.0,
          "2020-07-14": 1.0,
          "2020-07-15": 0.0,
          "2020-07-16": 0.0,
          "2020-07-17": 0.0,
          "2020-07-18": 0.0,
          "2020-07-19": 1.0,
          "2020-07-20": 1.5,
          "2020-07-21": 33.5,
          "2020-07-22": 0.5,
          "2020-07-23": 5.0,
          "2020-07-24": 0.0,
          "2020-07-25": 0.0,
          "2020-07-26": 0.0,
          "2020-07-27": 0.0,
          "2020-07-28": 0.0,
          "2020-07-29": 0.0,
          "2020-07-30": 0.0,
          "2020-07-31": 0.0,
          "2020-08-01": 0.0,
          "2020-08-02": 1.0,
          "2020-08-03": 0.0,
          "2020-08-04": 0.0,
          "2020-08-05": 12.5,
          "2020-08-06": 0.0,
          "2020-08-07": 3.0,
          "2020-08-08": 1.5,
          "2020-08-09": 1.0,
          "2020-08-10": 0.0,
          "2020-08-11": 59.0,
          "2020-08-12": 3.5,
          "2020-08-13": 13.5,
          "2020-08-14": 9.0,
          "2020-08-15": 0.0,
          "2020-08-16": 33.5,
          "2020-08-17": 0.0,
          "2020-08-18": 19.5,
          "2020-08-19": 0.0,
          "2020-08-20": 0.0,
          "2020-08-21": 0.0,
          "2020-08-22": 0.0,
          "2020-08-23": 0.5,
          "2020-08-24": 0.0,
          "2020-08-25": 0.0,
          "2020-08-26": 0.0,
          "2020-08-27": 0.0,
          "2020-08-28": 0.0,
          "2020-08-29": 0.0,
          "2020-08-30": 0.0,
          "2020-08-31": 0.0,
          "2020-09-01": 0.0,
          "2020-09-02": 4.0,
          "2020-09-03": 6.5,
          "2020-09-04": 0.0,
          "2020-09-05": 20.0,
          "2020-09-06": 0.0,
          "2020-09-07": 0.0,
          "2020-09-08": 0.0,
          "2020-09-09": 0.0,
          "2020-09-10": 6.0,
          "2020-09-11": 1.0,
          "2020-09-12": 6.5,
          "2020-09-13": 0.0,
          "2020-09-14": 29.0,
          "2020-09-15": 7.0,
          "2020-09-16": 7.0,
          "2020-09-17": 7.0,
          "2020-09-18": 2.0,
          "2020-09-19": 0.0,
          "2020-09-20": 24.0,
          "2020-09-21": 73.0,
          "2020-09-22": 31.0,
          "2020-09-23": 4.0,
          "2020-09-24": 1.0,
          "2020-09-25": 0.0,
          "2020-09-26": 22.0,
          "2020-09-27": 48.0,
          "2020-09-28": 0.0,
          "2020-09-29": 0.0,
          "2020-09-30": 0.0,
          "2020-10-01": 0.0,
          "2020-10-02": 41.0,
          "2020-10-03": 4.5,
          "2020-10-04": 8.0,
          "2020-10-05": 0.0,
          "2020-10-06": 0.0,
          "2020-10-07": 5.0,
          "2020-10-08": 13.5,
          "2020-10-09": 12.0,
          "2020-10-10": 22.0,
          "2020-10-11": 0.0,
          "2020-10-12": 0.0,
          "2020-10-13": 0.0,
          "2020-10-14": 7.0,
          "2020-10-15": 1.5,
          "2020-10-16": 3.0,
          "2020-10-17": 9.0,
          "2020-10-18": 52.5,
          "2020-10-19": 4.0,
          "2020-10-20": 46.0,
          "2020-10-21": 77.0,
          "2020-10-22": 1.0,
          "2020-10-23": 0.0,
          "2020-10-24": 35.5,
          "2020-10-25": 20.5,
          "2020-10-26": 5.0,
          "2020-10-27": 3.0,
          "2020-10-28": 7.5,
          "2020-10-29": 0.0,
          "2020-10-30": 7.5,
          "2020-10-31": 53.0,
          "2020-11-01": 1.0,
          "2020-11-02": 0.0,
          "2020-11-03": 0.0,
          "2020-11-04": 3.0,
          "2020-11-05": 13.0,
          "2020-11-06": 1.0,
          "2020-11-07": 2.0,
          "2020-11-08": 16.0,
          "2020-11-09": 0.0,
          "2020-11-10": 0.5,
          "2020-11-11": 36.0,
          "2020-11-12": 3.5,
          "2020-11-13": 1.0,
          "2020-11-14": 42.0,
          "2020-11-15": 0.0,
          "2020-11-16": 2.0,
          "2020-11-17": 16.0,
          "2020-11-18": 0.0,
          "2020-11-19": 0.0,
          "2020-11-20": 0.0,
          "2020-11-21": 14.0,
          "2020-11-22": 59.0,
          "2020-11-23": 1.5,
          "2020-11-24": 0.0,
          "2020-11-25": 0.0,
          "2020-11-26": 0.5,
          "2020-11-27": 8.0,
          "2020-11-28": 3.0,
          "2020-11-29": 16.0,
          "2020-11-30": 0.0,
          "2020-12-01": 4.0,
          "2020-12-02": 9.0,
          "2020-12-03": 4.0,
          "2020-12-04": 1.0,
          "2020-12-05": 26.5,
          "2020-12-06": 60.0,
          "2020-12-07": 1.0,
          "2020-12-08": 6.5,
          "2020-12-09": 4.0,
          "2020-12-10": 10.5,
          "2020-12-11": 5.5,
          "2020-12-12": 1.0,
          "2020-12-13": 0.0,
          "2020-12-14": 1.0,
          "2020-12-15": 5.5,
          "2020-12-16": 5.0,
          "2020-12-17": 4.0,
          "2020-12-18": 1.0,
          "2020-12-19": 0.0,
          "2020-12-20": 7.5,
          "2020-12-21": 6.5,
          "2020-12-22": 8.0,
          "2020-12-23": 0.0,
          "2020-12-24": 1.5,
          "2020-12-25": 4.0,
          "2020-12-26": 3.5,
          "2020-12-27": 0.0,
          "2020-12-28": 1.0,
          "2020-12-29": 5.0,
          "2020-12-30": 18.5,
          "2020-12-31": 1.0
        },
        "Reading_(+6hr)": "150 mm",
        "Reading_Manual": {
          "2020-01-01": 13.2,
          "2020-01-02": 13.4,
          "2020-01-03": 6.7,
          "2020-01-04": 8.5,
          "2020-01-05": 15.1,
          "2020-01-06": 6.9,
          "2020-01-07": 12.9,
          "2020-01-08": 18.1,
          "2020-01-09": 6.5,
          "2020-01-10": 16.5,
          "2020-01-11": 18.4,
          "2020-01-12": 9.6,
          "2020-01-13": 17.0,
          "2020-01-14": 13.3,
          "2020-01-15": 8.6,
          "2020-01-16": 16.8,
          "2020-01-17": 16.0,
          "2020-01-18": 8.9,
          "2020-01-19": 15.1,
          "2020-01-20": 13.8,
          "2020-01-21": 7.3,
          "2020-01-22": 3.1,
          "2020-01-23": 0.7,
          "2020-01-24": 2.3,
          "2020-01-25": 2.3,
          "2020-01-26": 18.8,
          "2020-01-27": 12.0,
          "2020-01-28": 15.2,
          "2020-01-29": 5.1,
          "2020-01-30": 16.1,
          "2020-01-31": 18.1,
          "2020-02-01": 14.8,
          "2020-02-02": 7.2,
          "2020-02-03": 15.9,
          "2020-02-04": 19.3,
          "2020-02-05": 15.7,
          "2020-02-06": 5.1,
          "2020-02-07": 14.6,
          "2020-02-08": 2.6,
          "2020-02-09": 7.7,
          "2020-02-10": 18.7,
          "2020-02-11": 4.4,
          "2020-02-12": 17.2,
          "2020-02-13": 7.1,
          "2020-02-14": 14.0,
          "2020-02-15": 1.2,
          "2020-02-16": 16.7,
          "2020-02-17": 5.0,
          "2020-02-18": 7.4,
          "2020-02-19": 19.5,
          "2020-02-20": 8.8,
          "2020-02-21": 19.9,
          "2020-02-22": 0.6,
          "2020-02-23": 10.7,
          "2020-02-24": 19.4,
          "2020-02-25": 5.1,
          "2020-02-26": 10.1,
          "2020-02-27": 11.5,
          "2020-02-28": 12.5,
          "2020-02-29": 4.7,
          "2020-03-01": 13.6,
          "2020-03-02": 5.6,
          "2020-03-03": 19.1,
          "2020-03-04": 1.1,
          "2020-03-05": 4.3,
          "2020-03-06": 13.7,
          "2020-03-07": 4.1,
          "2020-03-08": 1.9,
          "2020-03-09": 4.0,
          "2020-03-10": 5.5,
          "2020-03-11": 16.1,
          "2020-03-12": 7.2,
          "2020-03-13": 12.8,
          "2020-03-14": 9.9,
          "2020-03-15": 13.7,
          "2020-03-16": 9.8,
          "2020-03-17": 5.4,
          "2020-03-18": 3.5,
          "2020-03-19": 0.4,
          "2020-03-20": 12.0,
          "2020-03-21": 10.2,
          "2020-03-22": 5.9,
          "2020-03-23": 4.3,
          "2020-03-24": 8.2,
          "2020-03-25": 0.5,
          "2020-03-26": 17.2,
          "2020-03-27": 1.4,
          "2020-03-28": 10.3,
          "2020-03-29": 19.0,
          "2020-03-30": 20.0,
          "2020-03-31": 3.3,
          "2020-04-01": 11.3,
          "2020-04-02": 11.6,
          "2020-04-03": 1.4,
          "2020-04-04": 9.9,
          "2020-04-05": 18.3,
          "2020-04-06": 18.2,
          "2020-04-07": 2.8,
          "2020-04-08": 8.8,
          "2020-04-09": 1.4,
          "2020-04-10": 0.7,
          "2020-04-11": 5.7,
          "2020-04-12": 12.4,
          "2020-04-13": 7.7,
          "2020-04-14": 12.1,
          "2020-04-15": 6.0,
          "2020-04-16": 2.6,
          "2020-04-17": 19.9,
          "2020-04-18": 6.0,
          "2020-04-19": 18.5,
          "2020-04-20": 3.4,
          "2020-04-21": 19.6,
          "2020-04-22": 13.0,
          "2020-04-23": 16.0,
          "2020-04-24": 17.0,
          "2020-04-25": 10.5,
          "2020-04-26": 11.0,
          "2020-04-27": 15.7,
          "2020-04-28": 9.5,
          "2020-04-29": 8.8,
          "2020-04-30": 4.8,
          "2020-05-01": 14.1,
          "2020-05-02": 7.3,
          "2020-05-03": 3.1,
          "2020-05-04": 7.7,
          "2020-05-05": 15.2,
          "2020-05-06": 18.8,
          "2020-05-07": 6.8,
          "2020-05-08": 17.7,
          "2020-05-09": 14.9,
          "2020-05-10": 3.9,
          "2020-05-11": 5.8,
          "2020-05-12": 10.6,
          "2020-05-13": 0.3,
          "2020-05-14": 14.5,
          "2020-05-15": 14.1,
          "2020-05-16": 19.3,
          "2020-05-17": 16.3,
          "2020-05-18": 6.6,
          "2020-05-19": 15.1,
          "2020-05-20": 0.0,
          "2020-05-21": 6.1,
          "2020-05-22": 1.4,
          "2020-05-23": 8.6,
          "2020-05-24": 6.1,
          "2020-05-25": 4.1,
          "2020-05-26": 7.9,
          "2020-05-27": 19.7,
          "2020-05-28": 0.8,
          "2020-05-29": 7.3,
          "2020-05-30": 16.7,
          "2020-05-31": 15.3,
          "2020-06-01": 17.2,
          "2020-06-02": 9.8,
          "2020-06-03": 8.9,
          "2020-06-04": 9.1,
          "2020-06-05": 4.1,
          "2020-06-06": 16.8,
          "2020-06-07": 16.0,
          "2020-06-08": 7.6,
          "2020-06-09": 14.0,
          "2020-06-10": 15.3,
          "2020-06-11": 8.8,
          "2020-06-12": 6.2,
          "2020-06-13": 14.3,
          "2020-06-14": 15.5,
          "2020-06-15": 12.0,
          "2020-06-16": 13.4,
          "2020-06-17": 16.8,
          "2020-06-18": 18.7,
          "2020-06-19": 7.0,
          "2020-06-20": 7.5,
          "2020-06-21": 2.3,
          "2020-06-22": 1.1,
          "2020-06-23": 11.1,
          "2020-06-24": 15.8,
          "2020-06-25": 8.0,
          "2020-06-26": 6.6,
          "2020-06-27": 5.9,
          "2020-06-28": 18.2,
          "2020-06-29": 14.5,
          "2020-06-30": 7.8,
          "2020-07-01": 12.5,
          "2020-07-02": 10.3,
          "2020-07-03": 16.3,
          "2020-07-04": 8.2,
          "2020-07-05": 11.1,
          "2020-07-06": 9.1,
          "2020-07-07": 4.0,
          "2020-07-08": 19.2,
          "2020-07-09": 5.4,
          "2020-07-10": 19.3,
          "2020-07-11": 4.0,
          "2020-07-12": 13.5,
          "2020-07-13": 4.4,
          "2020-07-14": 5.8,
          "2020-07-15": 17.5,
          "2020-07-16": 10.8,
          "2020-07-17": 11.9,
          "2020-07-18": 4.8,
          "2020-07-19": 11.1,
          "2020-07-20": 8.0,
          "2020-07-21": 19.9,
          "2020-07-22": 9.0,
          "2020-07-23": 7.0,
          "2020-07-24": 14.7,
          "2020-07-25": 9.9,
          "2020-07-26": 18.0,
          "2020-07-27": 2.0,
          "2020-07-28": 6.6,
          "2020-07-29": 16.6,
          "2020-07-30": 1.2,
          "2020-07-31": 16.4,
          "2020-08-01": 10.5,
          "2020-08-02": 13.6,
          "2020-08-03": 6.6,
          "2020-08-04": 13.8,
          "2020-08-05": 13.8,
          "2020-08-06": 1.2,
          "2020-08-07": 16.2,
          "2020-08-08": 14.2,
          "2020-08-09": 8.2,
          "2020-08-10": 4.2,
          "2020-08-11": 18.5,
          "2020-08-12": 16.6,
          "2020-08-13": 15.5,
          "2020-08-14": 13.1,
          "2020-08-15": 7.2,
          "2020-08-16": 2.3,
          "2020-08-17": 14.8,
          "2020-08-18": 8.5,
          "2020-08-19": 8.6,
          "2020-08-20": 1.2,
          "2020-08-21": 3.3,
          "2020-08-22": 1.6,
          "2020-08-23": 16.7,
          "2020-08-24": 19.6,
          "2020-08-25": 10.5,
          "2020-08-26": 0.9,
          "2020-08-27": 15.2,
          "2020-08-28": 14.0,
          "2020-08-29": 19.8,
          "2020-08-30": 7.4,
          "2020-08-31": 4.5,
          "2020-09-01": 1.5,
          "2020-09-02": 5.4,
          "2020-09-03": 5.7,
          "2020-09-04": 9.1,
          "2020-09-05": 18.0,
          "2020-09-06": 1.1,
          "2020-09-07": 12.3,
          "2020-09-08": 13.5,
          "2020-09-09": 12.4,
          "2020-09-10": 1.0,
          "2020-09-11": 13.2,
          "2020-09-12": 7.9,
          "2020-09-13": 12.8,
          "2020-09-14": 12.9,
          "2020-09-15": 2.1,
          "2020-09-16": 19.3,
          "2020-09-17": 4.0,
          "2020-09-18": 15.7,
          "2020-09-19": 12.4,
          "2020-09-20": 9.0,
          "2020-09-21": 16.9,
          "2020-09-22": 16.4,
          "2020-09-23": 4.6,
          "2020-09-24": 15.6,
          "2020-09-25": 6.9,
          "2020-09-26": 2.8,
          "2020-09-27": 2.5,
          "2020-09-28": 0.4,
          "2020-09-29": 1.8,
          "2020-09-30": 8.2,
          "2020-10-01": 14.2,
          "2020-10-02": 10.5,
          "2020-10-03": 12.1,
          "2020-10-04": 0.2,
          "2020-10-05": 15.4,
          "2020-10-06": 12.6,
          "2020-10-07": 17.7,
          "2020-10-08": 10.7,
          "2020-10-09": 16.8,
          "2020-10-10": 10.3,
          "2020-10-11": 6.1,
          "2020-10-12": 0.8,
          "2020-10-13": 1.3,
          "2020-10-14": 13.9,
          "2020-10-15": 20.0,
          "2020-10-16": 1.3,
          "2020-10-17": 18.7,
          "2020-10-18": 19.3,
          "2020-10-19": 13.9,
          "2020-10-20": 18.6,
          "2020-10-21": 8.4,
          "2020-10-22": 16.0,
          "2020-10-23": 10.5,
          "2020-10-24": 2.5,
          "2020-10-25": 0.4,
          "2020-10-26": 19.2,
          "2020-10-27": 9.9,
          "2020-10-28": 3.4,
          "2020-10-29": 14.7,
          "2020-10-30": 13.4,
          "2020-10-31": 17.4,
          "2020-11-01": 13.0,
          "2020-11-02": 14.9,
          "2020-11-03": 5.8,
          "2020-11-04": 10.7,
          "2020-11-05": 3.1,
          "2020-11-06": 3.1,
          "2020-11-07": 8.0,
          "2020-11-08": 11.8,
          "2020-11-09": 3.6,
          "2020-11-10": 3.2,
          "2020-11-11": 19.9,
          "2020-11-12": 6.7,
          "2020-11-13": 6.5,
          "2020-11-14": 5.8,
          "2020-11-15": 16.8,
          "2020-11-16": 6.2,
          "2020-11-17": 6.0,
          "2020-11-18": 1.1,
          "2020-11-19": 16.2,
          "2020-11-20": 9.4,
          "2020-11-21": 1.5,
          "2020-11-22": 11.8,
          "2020-11-23": 0.1,
          "2020-11-24": 1.1,
          "2020-11-25": 7.8,
          "2020-11-26": 18.4,
          "2020-11-27": 0.8,
          "2020-11-28": 8.6,
          "2020-11-29": 17.1,
          "2020-11-30": 4.4,
          "2020-12-01": 4.7,
          "2020-12-02": 10.8,
          "2020-12-03": 16.7,
          "2020-12-04": 10.8,
          "2020-12-05": 7.7,
          "2020-12-06": 9.2,
          "2020-12-07": 15.0,
          "2020-12-08": 8.1,
          "2020-12-09": 8.9,
          "2020-12-10": 7.3,
          "2020-12-11": 8.0,
          "2020-12-12": 15.0,
          "2020-12-13": 16.4,
          "2020-12-14": 7.0,
          "2020-12-15": 2.1,
          "2020-12-16": 13.2,
          "2020-12-17": 12.7,
          "2020-12-18": 11.4,
          "2020-12-19": 6.8,
          "2020-12-20": 5.5,
          "2020-12-21": 16.8,
          "2020-12-22": 7.7,
          "2020-12-23": 3.9,
          "2020-12-24": 16.4,
          "2020-12-25": 10.5,
          "2020-12-26": 8.2,
          "2020-12-27": 17.8,
          "2020-12-28": 12.0,
          "2020-12-29": 14.4,
          "2020-12-30": 5.0,
          "2020-12-31": 8.0
        }
      },
      "geometry": {
        "type": "Point",
        "coordinates": [
          106.7013,
          -6.15817999971
        ]
      }
    }
  ]
}