{
"type": "FeatureCollection",
"name": "Cross Section - Sungai Ciliwung - 001 - DKI Jakarta_with_attributes",
"crs": { "type": "name", "properties": { "name": "urn:ogc:def:crs:OGC:1.3:CRS84" } },
"features": [
{ "type": "Feature", "properties": { "id": 1, "Cross_Section_ID": "CLW-005", "Simulated_Date": "2025-08-28", "Simulated_Time": "+2 hours", "Simulated_Rain_mm": 75, "Water_Depth_m": 0.5, "River_Name": "Ciliwung River", "Catchment_Name": "Ciliwung Cisadane", "Manager": "BBWS Ciliwung Cisadane", "Topography_Date": 2024, "Measurement_Type": "LIDAR", "Methodology": "1D Hydraulic Modelling", "Software": "HEC-RAS", "Model_CalibrationDate": "2024-12-20", "Accuracy": 0.84, "Computation_Time_hr": 4, "Return_Period": "X", "Real_Time_Rain_mm": 75, "Cross_Section_Profile": [ { "station": 0, "depth": 0 }, { "station": 5, "depth": 6 }, { "station": 15, "depth": 12 }, { "station": 25, "depth": 8 }, { "station": 35, "depth": 15 }, { "station": 45, "depth": 7 }, { "station": 60, "depth": 0 } ] }, "geometry": { "type": "Point", "coordinates": [ 106.850994118086717, -6.201336073936409 ] } }
]
}
